{
"type": "FeatureCollection",
"name": "city_boundaries_2025-09-12_09-39-11",
"crs": { "type": "name", "properties": { "name": "urn:ogc:def:crs:OGC:1.3:CRS84" } },
"features": [
{ "type": "Feature", "properties": { "city": "Stockholm" }, "geometry": { "type": "Polygon", "coordinates": [ [ [ 17.957140425000034, 59.396039576000078 ], [ 17.948086037000053, 59.386772009000083 ], [ 17.930939728000055, 59.376371450000079 ], [ 17.950528232000067, 59.367428571000062 ], [ 17.963362500000073, 59.357767499000033 ], [ 17.968794223000032, 59.352346572000044 ], [ 17.982001319000062, 59.344949576000033 ], [ 17.997419726000032, 59.340659353000035 ], [ 18.00593030400006, 59.341677410000045 ], [ 18.021780227000022, 59.339263828000071 ], [ 18.023709, 59.33991749900008 ], [ 18.031659735000062, 59.347863174000054 ], [ 18.047543490000066, 59.356016045000047 ], [ 18.043921234000038, 59.364190497000038 ], [ 18.03694961900004, 59.370791241000063 ], [ 18.050642500000038, 59.374970499000028 ], [ 18.092234767000036, 59.36650140200004 ], [ 18.106026974000031, 59.358145439000054 ], [ 18.118041363000032, 59.34589887900006 ], [ 18.127899078000041, 59.345637671000077 ], [ 18.151694547000034, 59.330105830000036 ], [ 18.150423169000078, 59.325163543000031 ], [ 18.152924092000035, 59.322425223000039 ], [ 18.149722803000031, 59.321205479000071 ], [ 18.100201269000024, 59.320836900000074 ], [ 18.086370028000033, 59.330060665000076 ], [ 18.083487589000072, 59.328009159000032 ], [ 18.088179485000069, 59.323986036000065 ], [ 18.075459852000051, 59.326661754000042 ], [ 18.078775023000048, 59.319906178000053 ], [ 18.109329500000058, 59.31498749900004 ], [ 18.111444130000052, 59.301902502000075 ], [ 18.127039991000061, 59.300558246000037 ], [ 18.120934875000046, 59.291946285000051 ], [ 18.132939856000064, 59.283785794000039 ], [ 18.149957807000078, 59.274517881000065 ], [ 18.151436883000031, 59.26615391200005 ], [ 18.170752122000067, 59.262057672000083 ], [ 18.174193468000055, 59.253737594000029 ], [ 18.178827335000051, 59.250316615000031 ], [ 18.201189, 59.248092499000052 ], [ 18.196352, 59.244609999000033 ], [ 18.194784, 59.239249999000037 ], [ 18.192814, 59.229854999000054 ], [ 18.177204, 59.232161999000027 ], [ 18.132939856000064, 59.242790973000069 ], [ 18.125912938000056, 59.239801459000034 ], [ 18.124919267000053, 59.234678763000034 ], [ 18.106616382000027, 59.227801907000071 ], [ 18.081041613000025, 59.232159892000027 ], [ 18.054000785000028, 59.245628257000078 ], [ 18.031150578000052, 59.249192274000052 ], [ 17.96305811700006, 59.269037881000031 ], [ 17.956501069000069, 59.274654890000079 ], [ 17.955988887000046, 59.282001190000074 ], [ 17.945335099000033, 59.284697904000041 ], [ 17.915717217000065, 59.279329634000078 ], [ 17.907421032000059, 59.269440615000065 ], [ 17.893402191000064, 59.267557006000061 ], [ 17.877862217000029, 59.269217927000057 ], [ 17.867624, 59.273926999000082 ], [ 17.862774, 59.274688499000035 ], [ 17.86615196300005, 59.278199751000045 ], [ 17.868184563000057, 59.286058340000068 ], [ 17.882841921000022, 59.287675660000048 ], [ 17.911569869000061, 59.299343772000043 ], [ 17.947248032000061, 59.307054500000049 ], [ 17.952993365000054, 59.310826481000049 ], [ 17.937661658000025, 59.318413738000061 ], [ 17.877071091000062, 59.337000085000057 ], [ 17.843204312000069, 59.350647036000055 ], [ 17.827561, 59.35249649900004 ], [ 17.826595500000053, 59.35315999900007 ], [ 17.816049108000072, 59.357821357000034 ], [ 17.79585731700007, 59.356153821000078 ], [ 17.786838658000022, 59.372681262000071 ], [ 17.774095879000072, 59.384337136000056 ], [ 17.765841, 59.387508499000035 ], [ 17.762239500000078, 59.389175499000032 ], [ 17.760521, 59.391422499000043 ], [ 17.770034, 59.395042499000056 ], [ 17.774095879000072, 59.396588259000055 ], [ 17.780107500000042, 59.39887599900004 ], [ 17.798504, 59.390712999000073 ], [ 17.81382, 59.39728149900003 ], [ 17.816843, 59.399257499000043 ], [ 17.82377850000006, 59.393897999000046 ], [ 17.827612, 59.391746499000078 ], [ 17.825413, 59.381408499000031 ], [ 17.828293, 59.381030999000075 ], [ 17.840049500000077, 59.381046499000036 ], [ 17.845447500000034, 59.385345499000039 ], [ 17.852604, 59.387855499000068 ], [ 17.855236, 59.390041499000063 ], [ 17.863754500000027, 59.391181999000082 ], [ 17.867326500000047, 59.393485999000063 ], [ 17.869341, 59.396209499000065 ], [ 17.871935, 59.39543149900004 ], [ 17.875475, 59.397189999000034 ], [ 17.872309, 59.399261499000033 ], [ 17.870411, 59.400771999000028 ], [ 17.870687500000031, 59.402995999000041 ], [ 17.888118500000076, 59.405742499000041 ], [ 17.889677402000075, 59.406952148000073 ], [ 17.893402191000064, 59.409842443000059 ], [ 17.896966986000052, 59.414572288000045 ], [ 17.898911937000037, 59.416085523000049 ], [ 17.893402191000064, 59.423189328000035 ], [ 17.889850500000023, 59.424842999000077 ], [ 17.888780551000025, 59.43052330900008 ], [ 17.893402191000064, 59.436703195000064 ], [ 17.901567794000073, 59.439752769000052 ], [ 17.913693046000049, 59.435938557000043 ], [ 17.913572564000049, 59.425464039000076 ], [ 17.923284858000045, 59.418944432000046 ], [ 17.953306315000077, 59.406952148000073 ], [ 17.957226, 59.405502499000079 ], [ 17.967916500000058, 59.399131999000076 ], [ 17.957140425000034, 59.396039576000078 ] ] ] } },
{ "type": "Feature", "properties": { "city": "Madrid" }, "geometry": { "type": "Polygon", "coordinates": [ [ [ -3.834001499999943, 40.396018499000036 ], [ -3.820501891999925, 40.396313009000039 ], [ -3.803272263999929, 40.392057779000027 ], [ -3.781212262999929, 40.394691554000076 ], [ -3.775105415999974, 40.402048343000047 ], [ -3.780559785999969, 40.419303613000068 ], [ -3.771326631999955, 40.429736569000056 ], [ -3.770719833999976, 40.439606103000074 ], [ -3.772460630999944, 40.443719496000028 ], [ -3.78829621899996, 40.444018160000041 ], [ -3.795646094999938, 40.457198018000042 ], [ -3.804008170999964, 40.462663710000072 ], [ -3.834193, 40.464376499000025 ], [ -3.83748258199995, 40.468232835000038 ], [ -3.836566, 40.475082499000052 ], [ -3.833437709999941, 40.489186909000068 ], [ -3.838452229999973, 40.499277176000078 ], [ -3.837881823999965, 40.505357908000065 ], [ -3.852508872999977, 40.510743173000037 ], [ -3.854272737999963, 40.524337154000079 ], [ -3.86636460699998, 40.544440209000072 ], [ -3.875154376999944, 40.557808250000051 ], [ -3.879861207999966, 40.559564438000052 ], [ -3.883457655999962, 40.560906327000055 ], [ -3.88729415399996, 40.567660347000071 ], [ -3.885416499999963, 40.574413999000058 ], [ -3.883525499999962, 40.585234999000079 ], [ -3.879861207999966, 40.587062176000074 ], [ -3.870898875999956, 40.591531188000033 ], [ -3.85639333499995, 40.58816026900007 ], [ -3.842278499999964, 40.592500499000039 ], [ -3.816893079999943, 40.595055395000031 ], [ -3.808729092999954, 40.59848364700008 ], [ -3.806878901999937, 40.600885205000054 ], [ -3.810351, 40.609427499000049 ], [ -3.801464659999965, 40.605711262000057 ], [ -3.801591704999964, 40.598968977000027 ], [ -3.77574556899998, 40.601211779000039 ], [ -3.742391002999966, 40.590822180000032 ], [ -3.736213340999939, 40.586262141000077 ], [ -3.720624837999935, 40.582480733000068 ], [ -3.710553790999938, 40.583389428000032 ], [ -3.696694395999941, 40.589907132000064 ], [ -3.687145127999941, 40.606217909000065 ], [ -3.667980263999937, 40.619371771000033 ], [ -3.667817499999956, 40.629560499000036 ], [ -3.659889434999968, 40.640429554000036 ], [ -3.650763397999981, 40.641962928000055 ], [ -3.637804320999976, 40.636897717000068 ], [ -3.625674499999946, 40.616710499000078 ], [ -3.619157365999968, 40.612368410000045 ], [ -3.614883462999956, 40.601220310000031 ], [ -3.602465499999937, 40.591938936000076 ], [ -3.60696455599998, 40.584876319000045 ], [ -3.623588337999934, 40.574732975000074 ], [ -3.649449884999967, 40.57764841200003 ], [ -3.661062252999955, 40.591477673000043 ], [ -3.67398449999996, 40.588820499000065 ], [ -3.697482448999949, 40.577060680000045 ], [ -3.689170825999952, 40.56760750400008 ], [ -3.67715237799996, 40.542443970000079 ], [ -3.670314424999958, 40.534812855000041 ], [ -3.675688132999937, 40.526581523000061 ], [ -3.66663134099997, 40.523809551000056 ], [ -3.658102808999956, 40.512689741000031 ], [ -3.642050337999933, 40.507779242000026 ], [ -3.614893346999963, 40.510266107000064 ], [ -3.599126557999966, 40.501364288000048 ], [ -3.572027073999948, 40.511934258000053 ], [ -3.554102, 40.511297999000078 ], [ -3.553954268999973, 40.502190318000032 ], [ -3.542309, 40.49378743300008 ], [ -3.530682499999955, 40.471243499000025 ], [ -3.525565572999938, 40.468059964000076 ], [ -3.528554253999971, 40.461658026000066 ], [ -3.527520033999963, 40.455785172000049 ], [ -3.533481022999979, 40.452302673000077 ], [ -3.530990499999973, 40.446835999000029 ], [ -3.574527686999943, 40.436732154000026 ], [ -3.577861015999929, 40.433088886000064 ], [ -3.575998476999928, 40.424414014000035 ], [ -3.578708736999943, 40.417177319000075 ], [ -3.573378626999954, 40.412233195000056 ], [ -3.540549898999927, 40.410874050000075 ], [ -3.531161992999955, 40.415085462000036 ], [ -3.531032, 40.420047499000077 ], [ -3.519758, 40.409889999000029 ], [ -3.520634899999948, 40.392732265000063 ], [ -3.527966394999964, 40.389915852000058 ], [ -3.54234267399994, 40.391812315000038 ], [ -3.548503545999949, 40.380747167000038 ], [ -3.554112772999929, 40.355358513000056 ], [ -3.582879495999975, 40.324738571000069 ], [ -3.58349312699994, 40.316749332000029 ], [ -3.575967499999933, 40.314848999000048 ], [ -3.596876020999957, 40.312205577000043 ], [ -3.609254418999967, 40.314042074000042 ], [ -3.629743664999978, 40.320727704000035 ], [ -3.648761107999974, 40.332601157000056 ], [ -3.692787482999961, 40.320659943000067 ], [ -3.707436633999976, 40.32310127900007 ], [ -3.708913681999945, 40.32638554600004 ], [ -3.720446639999977, 40.329891554000028 ], [ -3.72476649999993, 40.334947499000066 ], [ -3.722012996999979, 40.36488100400004 ], [ -3.756678422999926, 40.357569478000073 ], [ -3.778956857999958, 40.36142970700007 ], [ -3.787605, 40.35865749900006 ], [ -3.810576057999981, 40.365015345000074 ], [ -3.834001499999943, 40.396018499000036 ] ] ] } },
{ "type": "Feature", "properties": { "city": "Sevilla" }, "geometry": { "type": "MultiPolygon", "coordinates": [ [ [ [ -6.026157, 37.313070499000048 ], [ -6.024181, 37.314275999000074 ], [ -6.023088499999972, 37.315375499000027 ], [ -6.02154349999995, 37.316302999000072 ], [ -6.017852499999947, 37.317093499000066 ], [ -6.015120499999966, 37.31440199900004 ], [ -6.032761, 37.300451999000074 ], [ -6.031679775999976, 37.308325914000079 ], [ -6.027458499999966, 37.311978999000075 ], [ -6.026157, 37.313070499000048 ] ] ], [ [ [ -6.018787455999927, 37.333636983000076 ], [ -6.022682, 37.350106499000049 ], [ -6.022441, 37.379591499000071 ], [ -6.02275549999996, 37.380873999000073 ], [ -6.024613963999968, 37.390849123000066 ], [ -6.016161623999949, 37.401214014000061 ], [ -6.012592499999926, 37.413392499000054 ], [ -5.99229900499995, 37.42476892500008 ], [ -6.005210972999976, 37.432099890000075 ], [ -6.011527629999932, 37.441913829000043 ], [ -6.013691078999955, 37.439053723000029 ], [ -6.013142854999955, 37.421770160000051 ], [ -6.020213291999937, 37.421007784000039 ], [ -6.023185499999954, 37.427495499000031 ], [ -6.028740499999969, 37.442632499000069 ], [ -6.023658280999939, 37.445291155000064 ], [ -6.009594499999935, 37.442788499000073 ], [ -5.999695057999929, 37.447969421000039 ], [ -5.950280622999969, 37.452740315000028 ], [ -5.918602223999926, 37.447726642000077 ], [ -5.904234274999965, 37.442537316000028 ], [ -5.865514063999967, 37.402150666000068 ], [ -5.840829474999964, 37.396082076000027 ], [ -5.818405, 37.39871049900006 ], [ -5.818672499999934, 37.393475499000033 ], [ -5.819041499999969, 37.390094999000041 ], [ -5.88772596299998, 37.385708554000075 ], [ -5.905327921999969, 37.376977740000029 ], [ -5.942007891999936, 37.366877592000037 ], [ -5.938701, 37.362035499000058 ], [ -5.940472499999942, 37.359281499000076 ], [ -5.943222, 37.352772999000024 ], [ -5.949343, 37.345668499000055 ], [ -5.955223499999931, 37.336780499000042 ], [ -5.957237499999962, 37.334911499000043 ], [ -5.957979, 37.331669499000043 ], [ -5.958739499999979, 37.329096999000058 ], [ -5.960885, 37.326278499000068 ], [ -5.963985, 37.324242999000035 ], [ -5.964607, 37.320145499000034 ], [ -5.968986499999971, 37.313416999000026 ], [ -6.001260499999944, 37.319727499000066 ], [ -6.018787455999927, 37.333636983000076 ] ] ] ] } },
{ "type": "Feature", "properties": { "city": "Rome" }, "geometry": { "type": "MultiPolygon", "coordinates": [ [ [ [ 12.847971995000023, 41.872164708000071 ], [ 12.846576500000026, 41.86810299900003 ], [ 12.84189850000007, 41.868475999000054 ], [ 12.820846867000057, 41.881351593000034 ], [ 12.800475715000061, 41.899784167000064 ], [ 12.776266501000066, 41.910744536000038 ], [ 12.741490500000054, 41.897571499000037 ], [ 12.736453122000057, 41.898497083000052 ], [ 12.735656912000024, 41.893098948000045 ], [ 12.727739, 41.886450999000033 ], [ 12.705155258000048, 41.88975004200006 ], [ 12.700218464000045, 41.888939262000065 ], [ 12.699332437000066, 41.88322193700003 ], [ 12.706102498000064, 41.865322512000034 ], [ 12.734721849000039, 41.846439548000035 ], [ 12.740048862000037, 41.831800418000057 ], [ 12.727345998000033, 41.827658880000058 ], [ 12.72345152500003, 41.83704085200003 ], [ 12.716198357000053, 41.840220485000032 ], [ 12.711385, 41.836943999000027 ], [ 12.70757214200006, 41.834918838000078 ], [ 12.70463, 41.84002999900008 ], [ 12.692135834000055, 41.843286945000045 ], [ 12.683966729000076, 41.842171273000076 ], [ 12.680844437000076, 41.848123598000029 ], [ 12.674602717000027, 41.851067003000026 ], [ 12.66178220200004, 41.850353893000033 ], [ 12.659647606000021, 41.844057742000075 ], [ 12.652498411000067, 41.846987770000055 ], [ 12.650629061000075, 41.835443157000043 ], [ 12.644308456000033, 41.829973017000043 ], [ 12.657456376000027, 41.819605186000047 ], [ 12.650332235000064, 41.817908137000074 ], [ 12.630906494000044, 41.824786570000072 ], [ 12.628857716000027, 41.819181985000057 ], [ 12.63842, 41.809690999000054 ], [ 12.644260385000052, 41.79785189100005 ], [ 12.638133500000038, 41.79631099900007 ], [ 12.627807405000055, 41.805984583000054 ], [ 12.605744703000028, 41.808315038000046 ], [ 12.589274120000027, 41.819374604000075 ], [ 12.590258049000056, 41.806206349000036 ], [ 12.597415811000076, 41.796230044000026 ], [ 12.58989, 41.779423999000073 ], [ 12.584907635000036, 41.761835277000046 ], [ 12.59245799100006, 41.757216982000045 ], [ 12.586314479000066, 41.753212613000073 ], [ 12.588342832000023, 41.747830536000038 ], [ 12.586273863000031, 41.741314372000033 ], [ 12.596601948000057, 41.739347750000036 ], [ 12.599242, 41.736060999000074 ], [ 12.594105987000034, 41.732729931000051 ], [ 12.596766, 41.730175999000039 ], [ 12.591860566000037, 41.723134767000033 ], [ 12.599346506000074, 41.718776907000063 ], [ 12.607420339000043, 41.705750049000073 ], [ 12.599779500000068, 41.690091499000062 ], [ 12.597203500000035, 41.690933499000039 ], [ 12.595341, 41.692137999000067 ], [ 12.574662970000077, 41.713461433000077 ], [ 12.552363287000048, 41.710952795000026 ], [ 12.53509663400007, 41.698282845000051 ], [ 12.52449209100007, 41.695527338000034 ], [ 12.511538021000035, 41.687256957000045 ], [ 12.495487642000057, 41.693128363000028 ], [ 12.460226836000061, 41.685226748000048 ], [ 12.416086500000063, 41.655723999000031 ], [ 12.365825709000035, 41.689226449000046 ], [ 12.325090476000071, 41.709497376000058 ], [ 12.260914770000056, 41.734237463000056 ], [ 12.231206, 41.741052999000033 ], [ 12.284566516000041, 41.755918669000039 ], [ 12.278522606000024, 41.767937085000028 ], [ 12.280947251000043, 41.78290368200004 ], [ 12.286198412000033, 41.788379305000035 ], [ 12.314421221000032, 41.799096173000066 ], [ 12.304960811000058, 41.814112130000069 ], [ 12.265607140000043, 41.852596363000032 ], [ 12.258981349000067, 41.866940480000039 ], [ 12.237552039000036, 41.884509424000044 ], [ 12.255711476000045, 41.896333708000043 ], [ 12.271657551000033, 41.924882257000036 ], [ 12.29594828200004, 41.946201958000074 ], [ 12.301878313000032, 41.962892689000057 ], [ 12.287988883000025, 41.964480457000036 ], [ 12.282641253000065, 41.967943569000056 ], [ 12.26926192600007, 41.967703741000037 ], [ 12.261348233000035, 41.974655662000032 ], [ 12.250408783000069, 41.973002699000062 ], [ 12.251147519000028, 41.978632650000065 ], [ 12.246745984000029, 41.986111994000055 ], [ 12.242923112000028, 41.999488605000067 ], [ 12.242917, 42.017450499000063 ], [ 12.262635615000022, 42.019450395000035 ], [ 12.264236767000057, 42.041751411000064 ], [ 12.260928408000041, 42.050711371000034 ], [ 12.263051613000073, 42.059523806000072 ], [ 12.276101168000025, 42.062015375000044 ], [ 12.294463394000047, 42.055690121000055 ], [ 12.29665994800007, 42.060962677000077 ], [ 12.30821086800006, 42.059868327000061 ], [ 12.320911628000033, 42.075009151000074 ], [ 12.317927053000062, 42.08614325700006 ], [ 12.337573556000052, 42.094273225000052 ], [ 12.343843, 42.103862999000057 ], [ 12.359715645000051, 42.098759337000047 ], [ 12.377053515000057, 42.100344763000066 ], [ 12.391544, 42.095149499000058 ], [ 12.389809183000068, 42.086879223000039 ], [ 12.374239682000052, 42.078069765000066 ], [ 12.374235652000038, 42.056335200000035 ], [ 12.383889665000027, 42.053239401000042 ], [ 12.395179948000077, 42.039839818000075 ], [ 12.426728025000045, 42.027149058000077 ], [ 12.424975367000059, 42.035339171000032 ], [ 12.414266935000057, 42.043128575000026 ], [ 12.409565190000023, 42.056139429000041 ], [ 12.425907736000056, 42.051917101000072 ], [ 12.432177490000072, 42.045697777000044 ], [ 12.443896767000069, 42.046022406000077 ], [ 12.450109, 42.043408499000066 ], [ 12.455842681000036, 42.049252729000045 ], [ 12.455356450000068, 42.059028804000036 ], [ 12.481331989000068, 42.062941140000078 ], [ 12.476330500000074, 42.074785499000029 ], [ 12.483945941000059, 42.074547498000072 ], [ 12.494781428000067, 42.058431557000063 ], [ 12.499749400000042, 42.067303952000032 ], [ 12.511894535000067, 42.069908902000066 ], [ 12.521819105000077, 42.067143052000063 ], [ 12.526361163000047, 42.069912845000033 ], [ 12.532281391000026, 42.067281008000066 ], [ 12.544017361000044, 42.076228237000066 ], [ 12.549616431000061, 42.073227332000044 ], [ 12.561823201000038, 42.076919091000036 ], [ 12.563008997000054, 42.068397130000051 ], [ 12.566363500000023, 42.065512499000079 ], [ 12.571318031000033, 42.058607413000061 ], [ 12.578962736000051, 42.054988725000044 ], [ 12.581428620000054, 42.048106591000078 ], [ 12.587202580000053, 42.043132307000064 ], [ 12.614809500000035, 42.029434999000046 ], [ 12.611985205000053, 42.02116671400006 ], [ 12.604498888000023, 42.01973003300003 ], [ 12.607694387000038, 42.012661994000041 ], [ 12.597733809000033, 42.000994198000058 ], [ 12.616636085000039, 41.99096654300007 ], [ 12.618100500000025, 41.987065499000039 ], [ 12.614497624000023, 41.97392370700004 ], [ 12.619241878000025, 41.965351006000049 ], [ 12.641734621000069, 41.956467737000025 ], [ 12.645733118000066, 41.943968616000063 ], [ 12.654262428000038, 41.940650012000049 ], [ 12.657961854000064, 41.931625300000064 ], [ 12.668952192000063, 41.927999843000066 ], [ 12.689910500000053, 41.936063999000055 ], [ 12.693268041000067, 41.934295895000048 ], [ 12.70133277900004, 41.936996216000068 ], [ 12.713702085000023, 41.931047154000055 ], [ 12.72709453300007, 41.928704726000035 ], [ 12.735633151000059, 41.932738548000032 ], [ 12.745455440000057, 41.929474050000067 ], [ 12.753566973000034, 41.922824217000027 ], [ 12.771200985000064, 41.928459779000036 ], [ 12.779503263000038, 41.92375116200003 ], [ 12.80713, 41.916633999000055 ], [ 12.806199086000049, 41.909343724000053 ], [ 12.799317065000025, 41.908415159000072 ], [ 12.797422681000057, 41.904555966000032 ], [ 12.827119633000052, 41.890250643000059 ], [ 12.843815500000062, 41.893696499000043 ], [ 12.848722811000073, 41.886064989000033 ], [ 12.843837572000041, 41.879157238000062 ], [ 12.853644786000075, 41.874468484000033 ], [ 12.854551500000071, 41.871423499000059 ], [ 12.847971995000023, 41.872164708000071 ] ] ], [ [ [ 12.33599128700007, 42.122273704000065 ], [ 12.335485687000073, 42.113051513000073 ], [ 12.31547850000004, 42.113688999000033 ], [ 12.306772684000066, 42.10491042600006 ], [ 12.300386927000034, 42.111533703000077 ], [ 12.290158832000031, 42.113960416000054 ], [ 12.283463981000068, 42.11236901500007 ], [ 12.281336530000033, 42.118475155000056 ], [ 12.285093, 42.135743499000057 ], [ 12.297340825000049, 42.13579065700003 ], [ 12.307261500000038, 42.140949999000043 ], [ 12.33599128700007, 42.122273704000065 ] ] ] ] } },
{ "type": "Feature", "properties": { "city": "Gdańsk" }, "geometry": { "type": "Polygon", "coordinates": [ [ [ 18.451045, 54.443251499000041 ], [ 18.459125770000071, 54.445363212000075 ], [ 18.476973473000044, 54.432994288000032 ], [ 18.486318251000057, 54.436000484000033 ], [ 18.489136537000036, 54.429082133000065 ], [ 18.499189052000077, 54.428062155000077 ], [ 18.507543500000054, 54.422749999000075 ], [ 18.556388215000027, 54.420471751000036 ], [ 18.591159, 54.430185499000061 ], [ 18.615512581000075, 54.417348099000037 ], [ 18.636400258000037, 54.410032645000058 ], [ 18.653587995000066, 54.408557583000061 ], [ 18.662968391000049, 54.412251730000037 ], [ 18.67645694600003, 54.408174045000067 ], [ 18.695339833000048, 54.391681002000041 ], [ 18.705586835000076, 54.385811895000074 ], [ 18.71194330700007, 54.386104790000047 ], [ 18.716672399000061, 54.380962780000061 ], [ 18.729355269000052, 54.375922923000076 ], [ 18.780401913000048, 54.370698573000027 ], [ 18.832614013000068, 54.356135971000072 ], [ 18.880404031000069, 54.348029962000055 ], [ 18.92224507800006, 54.346888257000046 ], [ 18.936717380000061, 54.352247509000051 ], [ 18.938425553000059, 54.358080341000061 ], [ 18.945993528000031, 54.362228420000065 ], [ 18.948388445000035, 54.362617663000037 ], [ 18.950029500000028, 54.358310499000027 ], [ 18.948447500000043, 54.355663499000059 ], [ 18.946273500000075, 54.351096999000049 ], [ 18.942900500000064, 54.342205999000043 ], [ 18.935491500000069, 54.319706999000061 ], [ 18.934372, 54.31532899900003 ], [ 18.933701500000041, 54.310847499000033 ], [ 18.933481500000028, 54.30779349900007 ], [ 18.933642500000076, 54.301708999000027 ], [ 18.934222, 54.297427999000035 ], [ 18.934664, 54.295238999000048 ], [ 18.935301500000037, 54.292909499000075 ], [ 18.936847500000056, 54.288354499000036 ], [ 18.940698, 54.280205499000033 ], [ 18.930153688000075, 54.282775740000034 ], [ 18.923499536000065, 54.287677366000082 ], [ 18.919363556000064, 54.300868444000059 ], [ 18.909516622000069, 54.312373291000029 ], [ 18.896627405000061, 54.314300287000037 ], [ 18.876109447000033, 54.310575595000046 ], [ 18.868651500000055, 54.312144999000054 ], [ 18.859387563000041, 54.320283740000036 ], [ 18.840253612000026, 54.328450057000055 ], [ 18.830157535000069, 54.339107762000026 ], [ 18.813886221000075, 54.344643922000046 ], [ 18.793768261000025, 54.346140024000078 ], [ 18.762891439000043, 54.333663968000053 ], [ 18.752380776000052, 54.33529362400003 ], [ 18.743576793000045, 54.340768363000052 ], [ 18.728964996000059, 54.341035961000046 ], [ 18.706288463000078, 54.31426775400007 ], [ 18.688117696000063, 54.312640367000029 ], [ 18.687083919000031, 54.300987145000079 ], [ 18.640451189000032, 54.290685272000076 ], [ 18.642045, 54.279676499000061 ], [ 18.635899461000065, 54.27538048200006 ], [ 18.624068500000078, 54.276724999000066 ], [ 18.605949722000048, 54.27893139400004 ], [ 18.603608888000053, 54.286108316000082 ], [ 18.610313677000022, 54.291893938000044 ], [ 18.599304837000034, 54.302839078000034 ], [ 18.59218525700004, 54.305398960000048 ], [ 18.579504500000041, 54.303223499000069 ], [ 18.572246506000056, 54.305401497000048 ], [ 18.571359290000032, 54.312222183000074 ], [ 18.564582643000051, 54.317248149000079 ], [ 18.552265298000066, 54.317672102000074 ], [ 18.544637633000036, 54.313173195000047 ], [ 18.53770537500003, 54.315724172000046 ], [ 18.53502571100006, 54.328109692000055 ], [ 18.529130863000034, 54.335978874000034 ], [ 18.500821805000044, 54.333680343000026 ], [ 18.494189672000061, 54.328843023000047 ], [ 18.491721330000075, 54.319124223000074 ], [ 18.487985, 54.317011499000046 ], [ 18.477376939000067, 54.325794933000054 ], [ 18.459835148000025, 54.332107761000032 ], [ 18.466136681000023, 54.349122795000028 ], [ 18.457998558000043, 54.355509593000079 ], [ 18.443469103000041, 54.358178877000057 ], [ 18.445149919000073, 54.376189356000054 ], [ 18.433217518000049, 54.383537979000039 ], [ 18.458478269000068, 54.396810137000045 ], [ 18.464294987000073, 54.403031522000049 ], [ 18.46217249700004, 54.407347379000043 ], [ 18.444032239000023, 54.40949573100005 ], [ 18.446978026000068, 54.42125466300007 ], [ 18.45532683700003, 54.432875569000032 ], [ 18.44492423500003, 54.438129268000068 ], [ 18.451045, 54.443251499000041 ] ] ] } },
{ "type": "Feature", "properties": { "city": "Trenčín" }, "geometry": { "type": "Polygon", "coordinates": [ [ [ 18.060473500000057, 48.852285499000061 ], [ 18.05571528300004, 48.850078128000064 ], [ 18.033765884000047, 48.850282722000031 ], [ 18.003805, 48.862950499000078 ], [ 17.991562, 48.865444499000034 ], [ 17.977896, 48.870075999000051 ], [ 17.987859624000066, 48.881032590000075 ], [ 17.98192, 48.88682699900005 ], [ 17.981108832000075, 48.897178675000077 ], [ 17.973761337000042, 48.905200378000075 ], [ 17.971325207000064, 48.912301137000043 ], [ 17.953911464000043, 48.925357602000076 ], [ 17.95068, 48.937418499000046 ], [ 17.955436500000076, 48.938707499000031 ], [ 17.973709, 48.942932499000051 ], [ 17.976865810000049, 48.942580576000069 ], [ 17.986563065000041, 48.947111463000056 ], [ 17.995777970000063, 48.94537508600007 ], [ 18.010709521000024, 48.93961693600005 ], [ 18.018596783000078, 48.934236136000038 ], [ 18.029688116000045, 48.931445944000075 ], [ 18.039213, 48.925071499000069 ], [ 18.043249330000037, 48.902498487000059 ], [ 18.071724174000053, 48.903758448000076 ], [ 18.065051500000038, 48.913123499000051 ], [ 18.072899651000057, 48.91908978500004 ], [ 18.080119960000047, 48.917687516000058 ], [ 18.080895208000072, 48.923739363000038 ], [ 18.085247, 48.924857999000039 ], [ 18.10759478500006, 48.916001107000056 ], [ 18.121987530000069, 48.906616693000046 ], [ 18.137780500000076, 48.901786499000082 ], [ 18.149829471000032, 48.897398819000045 ], [ 18.156564893000052, 48.889330205000078 ], [ 18.162971438000056, 48.886313208000047 ], [ 18.165066, 48.884915999000043 ], [ 18.164974470000061, 48.882627206000052 ], [ 18.162971438000056, 48.880542729000069 ], [ 18.152757502000043, 48.876429325000061 ], [ 18.151384500000063, 48.870027999000058 ], [ 18.143462500000055, 48.865212499000052 ], [ 18.136961500000041, 48.85947599900004 ], [ 18.135441595000032, 48.864797357000043 ], [ 18.129244302000075, 48.867980850000038 ], [ 18.104419165000024, 48.868452132000073 ], [ 18.091122411000072, 48.881496865000031 ], [ 18.075264823000055, 48.882355214000029 ], [ 18.071957980000036, 48.880831682000064 ], [ 18.070358820000024, 48.874523431000057 ], [ 18.059467740000059, 48.866509975000042 ], [ 18.058631022000043, 48.860313278000035 ], [ 18.054367608000064, 48.858144527000036 ], [ 18.060473500000057, 48.852285499000061 ] ] ] } },
{ "type": "Feature", "properties": { "city": "Dortmund Bochum Gelsenkirchen" }, "geometry": { "type": "Polygon", "coordinates": [ [ [ 7.348447888000067, 51.46582148400006 ], [ 7.342239047000021, 51.456709887000045 ], [ 7.289292106000062, 51.454745995000053 ], [ 7.288205267000023, 51.442480654000065 ], [ 7.269171013000062, 51.425653758000067 ], [ 7.258914102000062, 51.421390704000032 ], [ 7.252605500000072, 51.413331499000037 ], [ 7.228446733000055, 51.411142237000035 ], [ 7.203956461000075, 51.418550215000039 ], [ 7.182045918000028, 51.419655437000074 ], [ 7.169517917000064, 51.413990216000059 ], [ 7.155261887000052, 51.41467906400004 ], [ 7.13603, 51.426037999000073 ], [ 7.123834184000032, 51.432142209000062 ], [ 7.132381396000028, 51.441698627000051 ], [ 7.12241524500007, 51.453430403000027 ], [ 7.110009853000065, 51.460506255000041 ], [ 7.113679488000059, 51.470590688000073 ], [ 7.104200500000047, 51.481267499000069 ], [ 7.072718838000071, 51.484661694000067 ], [ 7.072025043000053, 51.494486464000033 ], [ 7.060467542000026, 51.498114531000056 ], [ 7.049268525000059, 51.51094157700004 ], [ 7.021096389000036, 51.518519013000059 ], [ 7.010207, 51.532728499000029 ], [ 7.013843295000072, 51.538653049000061 ], [ 7.030502316000025, 51.54779682000003 ], [ 7.020565734000058, 51.553165689000082 ], [ 7.019061099000055, 51.560531425000079 ], [ 7.014406677000068, 51.563821002000054 ], [ 7.016090063000036, 51.567275516000052 ], [ 7.012198734000037, 51.574351390000061 ], [ 7.01577584000006, 51.581573361000039 ], [ 7.013704793000045, 51.585714267000071 ], [ 6.994241102000046, 51.595843915000046 ], [ 6.99624086700004, 51.619671362000076 ], [ 6.987663, 51.622809499000027 ], [ 7.017990486000031, 51.626488047000066 ], [ 7.023303490000046, 51.631205956000031 ], [ 7.032435, 51.63077049900005 ], [ 7.033754023000029, 51.62528289200003 ], [ 7.067252, 51.615063999000029 ], [ 7.076604051000061, 51.604423746000066 ], [ 7.075768234000066, 51.589754697000046 ], [ 7.105329272000063, 51.593658841000035 ], [ 7.120660222000026, 51.586100639000051 ], [ 7.12849879700002, 51.576403279000033 ], [ 7.138096566000058, 51.57213033000005 ], [ 7.145057, 51.55224049900005 ], [ 7.129537709000033, 51.552108106000048 ], [ 7.124204677000023, 51.54827051400008 ], [ 7.143231760000049, 51.513128853000069 ], [ 7.139130641000065, 51.509004403000063 ], [ 7.139416500000038, 51.50553349900008 ], [ 7.152063069000064, 51.504161851000049 ], [ 7.160402977000047, 51.50807203100004 ], [ 7.17167726200006, 51.504763959000059 ], [ 7.191668108000044, 51.509811102000072 ], [ 7.194299408000063, 51.51667939500004 ], [ 7.199939483000037, 51.520920914000044 ], [ 7.228395146000025, 51.517987129000062 ], [ 7.24959302000002, 51.522196906000033 ], [ 7.253913759000056, 51.520468391000065 ], [ 7.257347615000072, 51.52684264100003 ], [ 7.276503824000031, 51.524504558000046 ], [ 7.285794835000047, 51.526343286000042 ], [ 7.293978500000037, 51.531994499000064 ], [ 7.314603, 51.522319999000047 ], [ 7.349461735000034, 51.522935079000035 ], [ 7.36237789300003, 51.529279195000072 ], [ 7.349615467000035, 51.541328241000031 ], [ 7.353171078000059, 51.550715069000034 ], [ 7.35117965400002, 51.567054827000049 ], [ 7.339651927000034, 51.576348993000067 ], [ 7.353303716000028, 51.582745806000048 ], [ 7.36934758700005, 51.582970475000081 ], [ 7.371728, 51.59080349900006 ], [ 7.394673563000026, 51.587421167000059 ], [ 7.401467039000067, 51.593300622000072 ], [ 7.417934, 51.599519999000051 ], [ 7.424952872000063, 51.593923570000072 ], [ 7.42197174100005, 51.586826013000064 ], [ 7.44527499700007, 51.581647536000048 ], [ 7.490985323000075, 51.592513004000068 ], [ 7.498185042000046, 51.591049524000027 ], [ 7.504047307000064, 51.580867129000069 ], [ 7.519180299000027, 51.576775672000053 ], [ 7.563501903000031, 51.585389122000038 ], [ 7.583723021000026, 51.581807838000032 ], [ 7.590543, 51.583158499000035 ], [ 7.596456391000061, 51.575942862000034 ], [ 7.591174773000034, 51.571177256000055 ], [ 7.592342012000074, 51.565986910000049 ], [ 7.605619341000022, 51.567018555000061 ], [ 7.604396067000039, 51.558458354000038 ], [ 7.607031266000035, 51.549988964000079 ], [ 7.62509959700003, 51.551355246000071 ], [ 7.632242500000075, 51.548670499000082 ], [ 7.631133244000068, 51.540506015000062 ], [ 7.636926221000067, 51.528139493000026 ], [ 7.636080153000023, 51.523122019000027 ], [ 7.631983500000047, 51.520276999000032 ], [ 7.617988947000072, 51.517719967000062 ], [ 7.597448663000023, 51.508956438000041 ], [ 7.597222095000063, 51.496006444000045 ], [ 7.607552026000064, 51.48015904600004 ], [ 7.604502500000024, 51.476225499000066 ], [ 7.586606839000069, 51.466038333000029 ], [ 7.571685875000071, 51.474524141000074 ], [ 7.547119707000036, 51.466559674000052 ], [ 7.543770596000059, 51.462322015000041 ], [ 7.54928478100004, 51.455762740000068 ], [ 7.538128875000041, 51.450341810000054 ], [ 7.53105496400002, 51.437786493000033 ], [ 7.513486500000056, 51.432603613000026 ], [ 7.506283908000057, 51.427185524000038 ], [ 7.508453, 51.417940999000052 ], [ 7.465332500000045, 51.41607299900005 ], [ 7.466330421000066, 51.434561503000054 ], [ 7.456412223000029, 51.437050889000034 ], [ 7.423623500000076, 51.432934499000055 ], [ 7.413861022000049, 51.450713162000056 ], [ 7.390407331000063, 51.461713920000079 ], [ 7.386698925000076, 51.475197054000034 ], [ 7.380472057000077, 51.478242047000037 ], [ 7.372801492000065, 51.477192113000058 ], [ 7.370046309000031, 51.481950169000072 ], [ 7.348194, 51.482669499000053 ], [ 7.348447888000067, 51.46582148400006 ] ] ] } },
{ "type": "Feature", "properties": { "city": "Eurométropole de Strasbourg" }, "geometry": { "type": "Polygon", "coordinates": [ [ [ 7.83604, 48.63337 ], [ 7.8335, 48.62603 ], [ 7.8314, 48.62157 ], [ 7.82912, 48.61813 ], [ 7.82659, 48.61519 ], [ 7.80485, 48.59268 ], [ 7.80225, 48.58894 ], [ 7.80108, 48.58624 ], [ 7.80026, 48.58257 ], [ 7.80028, 48.57932 ], [ 7.80082, 48.57643 ], [ 7.803, 48.57064 ], [ 7.8047, 48.56473 ], [ 7.80531, 48.56131 ], [ 7.80586, 48.55503 ], [ 7.8058, 48.55056 ], [ 7.80533, 48.54707 ], [ 7.80406, 48.54246 ], [ 7.80369, 48.54026 ], [ 7.80362, 48.53607 ], [ 7.80395, 48.53377 ], [ 7.80595, 48.52685 ], [ 7.80666, 48.52322 ], [ 7.80661, 48.51922 ], [ 7.80583, 48.51557 ], [ 7.80494, 48.51312 ], [ 7.80334, 48.51036 ], [ 7.80004, 48.50608 ], [ 7.79607, 48.50254 ], [ 7.79197, 48.50019 ], [ 7.78819, 48.49869 ], [ 7.77829, 48.49537 ], [ 7.7725, 48.4929 ], [ 7.7708, 48.49195 ], [ 7.76823, 48.48963 ], [ 7.76713, 48.48681 ], [ 7.76729, 48.47614 ], [ 7.7667, 48.46416 ], [ 7.76644, 48.46188 ], [ 7.76549, 48.45772 ], [ 7.76423, 48.45391 ], [ 7.76232, 48.44942 ], [ 7.76009, 48.4454 ], [ 7.75334, 48.43399 ], [ 7.75084, 48.43463 ], [ 7.7457, 48.43679 ], [ 7.74004, 48.43885 ], [ 7.73959, 48.44065 ], [ 7.74004, 48.44196 ], [ 7.74554, 48.44698 ], [ 7.74585, 48.44795 ], [ 7.74221, 48.44896 ], [ 7.74076, 48.44802 ], [ 7.73888, 48.44768 ], [ 7.73722, 48.44667 ], [ 7.73494, 48.44472 ], [ 7.73252, 48.44434 ], [ 7.72683, 48.44633 ], [ 7.71926, 48.44917 ], [ 7.71745, 48.44969 ], [ 7.70709, 48.4514 ], [ 7.70401, 48.4543 ], [ 7.70283, 48.4543 ], [ 7.70252, 48.45273 ], [ 7.701, 48.44993 ], [ 7.699, 48.45018 ], [ 7.69515, 48.45093 ], [ 7.69545, 48.45247 ], [ 7.69338, 48.45293 ], [ 7.6947, 48.455 ], [ 7.69701, 48.45717 ], [ 7.69605, 48.46001 ], [ 7.69495, 48.46172 ], [ 7.69563, 48.46383 ], [ 7.69446, 48.46714 ], [ 7.69525, 48.46861 ], [ 7.6938, 48.47085 ], [ 7.69723, 48.47343 ], [ 7.69624, 48.47425 ], [ 7.69573, 48.47642 ], [ 7.69613, 48.47802 ], [ 7.69825, 48.4794 ], [ 7.69826, 48.48227 ], [ 7.69504, 48.48155 ], [ 7.6944, 48.48209 ], [ 7.69002, 48.48266 ], [ 7.69011, 48.4836 ], [ 7.6839, 48.48361 ], [ 7.68401, 48.48682 ], [ 7.68167, 48.48752 ], [ 7.68127, 48.48559 ], [ 7.6797, 48.4856 ], [ 7.67864, 48.4863 ], [ 7.67836, 48.48739 ], [ 7.67484, 48.48744 ], [ 7.67191, 48.48745 ], [ 7.67025, 48.48784 ], [ 7.66778, 48.48766 ], [ 7.66635, 48.48698 ], [ 7.66473, 48.48561 ], [ 7.66015, 48.48448 ], [ 7.65684, 48.48129 ], [ 7.65611, 48.47883 ], [ 7.6544, 48.47826 ], [ 7.65311, 48.47726 ], [ 7.64933, 48.47709 ], [ 7.6482, 48.47607 ], [ 7.64668, 48.47602 ], [ 7.64466, 48.47775 ], [ 7.64317, 48.47774 ], [ 7.64179, 48.47702 ], [ 7.64016, 48.47711 ], [ 7.63935, 48.4784 ], [ 7.6392, 48.48139 ], [ 7.63791, 48.48283 ], [ 7.63478, 48.48331 ], [ 7.6326, 48.48168 ], [ 7.63277, 48.48094 ], [ 7.63167, 48.47996 ], [ 7.63172, 48.47893 ], [ 7.62934, 48.4788 ], [ 7.6247, 48.47902 ], [ 7.6198, 48.47809 ], [ 7.61666, 48.47719 ], [ 7.61284, 48.47698 ], [ 7.6083, 48.47501 ], [ 7.59778, 48.48164 ], [ 7.59168, 48.48559 ], [ 7.59187, 48.48666 ], [ 7.59223, 48.48723 ], [ 7.59257, 48.49046 ], [ 7.59408, 48.49074 ], [ 7.5939, 48.49426 ], [ 7.59478, 48.49546 ], [ 7.59366, 48.49786 ], [ 7.59025, 48.50322 ], [ 7.59026, 48.5039 ], [ 7.58798, 48.50897 ], [ 7.58753, 48.50894 ], [ 7.58572, 48.5128 ], [ 7.58922, 48.51349 ], [ 7.59122, 48.51354 ], [ 7.59157, 48.51172 ], [ 7.59229, 48.51141 ], [ 7.60819, 48.52003 ], [ 7.61174, 48.52206 ], [ 7.6111, 48.52247 ], [ 7.61175, 48.52438 ], [ 7.61352, 48.52445 ], [ 7.61289, 48.52973 ], [ 7.61062, 48.53191 ], [ 7.60874, 48.53629 ], [ 7.6069, 48.53686 ], [ 7.6089, 48.53783 ], [ 7.60721, 48.53942 ], [ 7.60615, 48.54183 ], [ 7.60537, 48.54326 ], [ 7.60662, 48.54451 ], [ 7.60548, 48.54534 ], [ 7.60435, 48.54704 ], [ 7.60577, 48.54744 ], [ 7.60608, 48.55019 ], [ 7.6049, 48.55025 ], [ 7.60334, 48.55289 ], [ 7.60126, 48.55428 ], [ 7.60093, 48.55188 ], [ 7.59937, 48.55225 ], [ 7.59868, 48.55068 ], [ 7.59547, 48.54994 ], [ 7.59218, 48.55132 ], [ 7.58716, 48.55185 ], [ 7.58707, 48.55374 ], [ 7.58819, 48.55592 ], [ 7.583, 48.5582 ], [ 7.57962, 48.55912 ], [ 7.57969, 48.55815 ], [ 7.57879, 48.55723 ], [ 7.57669, 48.55656 ], [ 7.57465, 48.55752 ], [ 7.57455, 48.55817 ], [ 7.57272, 48.55849 ], [ 7.57116, 48.5601 ], [ 7.57002, 48.56024 ], [ 7.57081, 48.56217 ], [ 7.57235, 48.56482 ], [ 7.57347, 48.5684 ], [ 7.57317, 48.57226 ], [ 7.57339, 48.57389 ], [ 7.57651, 48.57439 ], [ 7.58011, 48.57532 ], [ 7.58516, 48.57708 ], [ 7.59032, 48.57826 ], [ 7.58904, 48.57941 ], [ 7.58641, 48.5803 ], [ 7.58388, 48.58061 ], [ 7.57927, 48.58151 ], [ 7.57324, 48.58213 ], [ 7.57082, 48.58191 ], [ 7.56463, 48.58249 ], [ 7.56256, 48.58225 ], [ 7.55844, 48.5828 ], [ 7.55832, 48.58231 ], [ 7.55222, 48.5828 ], [ 7.55209, 48.58346 ], [ 7.54769, 48.58422 ], [ 7.54443, 48.58457 ], [ 7.5458, 48.58469 ], [ 7.54571, 48.5863 ], [ 7.54308, 48.58775 ], [ 7.54094, 48.58936 ], [ 7.54008, 48.59258 ], [ 7.53914, 48.59329 ], [ 7.53911, 48.59453 ], [ 7.53784, 48.59509 ], [ 7.53802, 48.59634 ], [ 7.53947, 48.59665 ], [ 7.54551, 48.59901 ], [ 7.55102, 48.60074 ], [ 7.55583, 48.60078 ], [ 7.56141, 48.60193 ], [ 7.56486, 48.60216 ], [ 7.56518, 48.60181 ], [ 7.56556, 48.60054 ], [ 7.56645, 48.60001 ], [ 7.56731, 48.59803 ], [ 7.56892, 48.59533 ], [ 7.57128, 48.59309 ], [ 7.57307, 48.59243 ], [ 7.57553, 48.59242 ], [ 7.57793, 48.59021 ], [ 7.58055, 48.59001 ], [ 7.58371, 48.58924 ], [ 7.5838, 48.58872 ], [ 7.58681, 48.58885 ], [ 7.58716, 48.58816 ], [ 7.58892, 48.58782 ], [ 7.59105, 48.58824 ], [ 7.59088, 48.58886 ], [ 7.59531, 48.58901 ], [ 7.5989, 48.58948 ], [ 7.59893, 48.58895 ], [ 7.61029, 48.59151 ], [ 7.60873, 48.59309 ], [ 7.61595, 48.5951 ], [ 7.62107, 48.59617 ], [ 7.62067, 48.59788 ], [ 7.62454, 48.59819 ], [ 7.62751, 48.59888 ], [ 7.62818, 48.59788 ], [ 7.62967, 48.59822 ], [ 7.63088, 48.59861 ], [ 7.62953, 48.60061 ], [ 7.63252, 48.60071 ], [ 7.63176, 48.60276 ], [ 7.63432, 48.60286 ], [ 7.63423, 48.60486 ], [ 7.63367, 48.60646 ], [ 7.63242, 48.60785 ], [ 7.63508, 48.6094 ], [ 7.64034, 48.61182 ], [ 7.64221, 48.61238 ], [ 7.64433, 48.61251 ], [ 7.64994, 48.61215 ], [ 7.6539, 48.61072 ], [ 7.65448, 48.60995 ], [ 7.65931, 48.61099 ], [ 7.66128, 48.61161 ], [ 7.66671, 48.61234 ], [ 7.6686, 48.61262 ], [ 7.67674, 48.62002 ], [ 7.67932, 48.62121 ], [ 7.68253, 48.62022 ], [ 7.68334, 48.61952 ], [ 7.68469, 48.62004 ], [ 7.68599, 48.6195 ], [ 7.68962, 48.62171 ], [ 7.68858, 48.62256 ], [ 7.68904, 48.62335 ], [ 7.68914, 48.62548 ], [ 7.69033, 48.62633 ], [ 7.69113, 48.62786 ], [ 7.69374, 48.62905 ], [ 7.6924, 48.63003 ], [ 7.69254, 48.63187 ], [ 7.69637, 48.63342 ], [ 7.69999, 48.63602 ], [ 7.70157, 48.63926 ], [ 7.70152, 48.64065 ], [ 7.69682, 48.6405 ], [ 7.69612, 48.64268 ], [ 7.69351, 48.64243 ], [ 7.69183, 48.64405 ], [ 7.68995, 48.64353 ], [ 7.68932, 48.64466 ], [ 7.68669, 48.64443 ], [ 7.68546, 48.64472 ], [ 7.68228, 48.64649 ], [ 7.68242, 48.64733 ], [ 7.67822, 48.64916 ], [ 7.67827, 48.65021 ], [ 7.67489, 48.65155 ], [ 7.67226, 48.65217 ], [ 7.66862, 48.65361 ], [ 7.66912, 48.65503 ], [ 7.67079, 48.65455 ], [ 7.67169, 48.65642 ], [ 7.6709, 48.65667 ], [ 7.67229, 48.65932 ], [ 7.66997, 48.65981 ], [ 7.67035, 48.66186 ], [ 7.66988, 48.66252 ], [ 7.67217, 48.66346 ], [ 7.67277, 48.66439 ], [ 7.67396, 48.6643 ], [ 7.67672, 48.66588 ], [ 7.67639, 48.66714 ], [ 7.68104, 48.66737 ], [ 7.68087, 48.66841 ], [ 7.68331, 48.66916 ], [ 7.68373, 48.66857 ], [ 7.6864, 48.66907 ], [ 7.68836, 48.66869 ], [ 7.68743, 48.67111 ], [ 7.68593, 48.67157 ], [ 7.68406, 48.67148 ], [ 7.68346, 48.6735 ], [ 7.68237, 48.6741 ], [ 7.68253, 48.67574 ], [ 7.6764, 48.67675 ], [ 7.675, 48.67621 ], [ 7.67473, 48.67785 ], [ 7.67572, 48.6805 ], [ 7.67391, 48.6809 ], [ 7.67202, 48.6828 ], [ 7.67014, 48.68391 ], [ 7.66859, 48.68635 ], [ 7.66851, 48.68774 ], [ 7.67255, 48.68881 ], [ 7.67216, 48.68951 ], [ 7.67828, 48.69092 ], [ 7.67815, 48.69242 ], [ 7.68334, 48.69231 ], [ 7.68553, 48.69309 ], [ 7.68513, 48.69367 ], [ 7.68642, 48.69492 ], [ 7.68741, 48.69457 ], [ 7.68847, 48.69558 ], [ 7.69147, 48.69666 ], [ 7.69258, 48.69453 ], [ 7.69401, 48.69442 ], [ 7.69563, 48.69509 ], [ 7.697, 48.69672 ], [ 7.69902, 48.69731 ], [ 7.70056, 48.69729 ], [ 7.703, 48.69873 ], [ 7.70504, 48.69941 ], [ 7.7074, 48.70139 ], [ 7.7099, 48.70231 ], [ 7.71151, 48.70212 ], [ 7.71331, 48.6953 ], [ 7.7152, 48.68595 ], [ 7.71902, 48.68603 ], [ 7.72199, 48.68748 ], [ 7.72781, 48.68754 ], [ 7.73326, 48.68719 ], [ 7.74724, 48.68652 ], [ 7.74727, 48.68449 ], [ 7.74662, 48.67961 ], [ 7.74718, 48.67826 ], [ 7.74689, 48.67625 ], [ 7.74542, 48.67292 ], [ 7.74877, 48.67226 ], [ 7.75049, 48.67311 ], [ 7.75403, 48.67319 ], [ 7.75748, 48.67239 ], [ 7.75987, 48.67148 ], [ 7.76238, 48.66935 ], [ 7.76404, 48.66882 ], [ 7.76506, 48.66732 ], [ 7.76801, 48.66642 ], [ 7.76978, 48.66934 ], [ 7.7713, 48.67013 ], [ 7.77359, 48.67024 ], [ 7.77729, 48.66931 ], [ 7.77804, 48.66853 ], [ 7.78127, 48.66981 ], [ 7.78661, 48.66994 ], [ 7.79652, 48.66935 ], [ 7.80846, 48.67946 ], [ 7.81629, 48.68601 ], [ 7.81787, 48.68744 ], [ 7.82307, 48.68457 ], [ 7.83102, 48.67971 ], [ 7.8343, 48.6809 ], [ 7.83915, 48.678 ], [ 7.84268, 48.67537 ], [ 7.84007, 48.674 ], [ 7.84214, 48.67216 ], [ 7.8429, 48.67037 ], [ 7.84438, 48.67063 ], [ 7.8453, 48.66966 ], [ 7.85181, 48.66843 ], [ 7.85231, 48.66717 ], [ 7.8535, 48.66715 ], [ 7.8551, 48.66576 ], [ 7.85927, 48.66698 ], [ 7.85961, 48.66825 ], [ 7.8589, 48.66889 ], [ 7.86069, 48.6697 ], [ 7.85987, 48.67046 ], [ 7.86044, 48.67251 ], [ 7.86192, 48.67394 ], [ 7.86456, 48.67511 ], [ 7.87229, 48.67513 ], [ 7.87322, 48.67483 ], [ 7.87457, 48.67336 ], [ 7.87752, 48.67305 ], [ 7.88099, 48.67494 ], [ 7.88589, 48.67567 ], [ 7.88781, 48.67501 ], [ 7.88824, 48.67391 ], [ 7.88586, 48.67104 ], [ 7.89099, 48.67082 ], [ 7.89384, 48.66805 ], [ 7.8959, 48.66695 ], [ 7.89194, 48.66384 ], [ 7.88751, 48.66116 ], [ 7.88325, 48.65917 ], [ 7.86251, 48.65088 ], [ 7.84899, 48.64712 ], [ 7.8443, 48.64519 ], [ 7.84223, 48.64384 ], [ 7.83942, 48.641 ], [ 7.83767, 48.63785 ], [ 7.83604, 48.63337 ] ] ] } }
]
}
