{
"type": "FeatureCollection",
"name": "dortmund_bochum_gelsenkirchen_boundary_2025-09-12_09-39-11",
"crs": { "type": "name", "properties": { "name": "urn:ogc:def:crs:OGC:1.3:CRS84" } },
"features": [
{ "type": "Feature", "properties": { "city": "Dortmund Bochum Gelsenkirchen" }, "geometry": { "type": "Polygon", "coordinates": [ [ [ 7.348447888000067, 51.46582148400006 ], [ 7.342239047000021, 51.456709887000045 ], [ 7.289292106000062, 51.454745995000053 ], [ 7.288205267000023, 51.442480654000065 ], [ 7.269171013000062, 51.425653758000067 ], [ 7.258914102000062, 51.421390704000032 ], [ 7.252605500000072, 51.413331499000037 ], [ 7.228446733000055, 51.411142237000035 ], [ 7.203956461000075, 51.418550215000039 ], [ 7.182045918000028, 51.419655437000074 ], [ 7.169517917000064, 51.413990216000059 ], [ 7.155261887000052, 51.41467906400004 ], [ 7.13603, 51.426037999000073 ], [ 7.123834184000032, 51.432142209000062 ], [ 7.132381396000028, 51.441698627000051 ], [ 7.12241524500007, 51.453430403000027 ], [ 7.110009853000065, 51.460506255000041 ], [ 7.113679488000059, 51.470590688000073 ], [ 7.104200500000047, 51.481267499000069 ], [ 7.072718838000071, 51.484661694000067 ], [ 7.072025043000053, 51.494486464000033 ], [ 7.060467542000026, 51.498114531000056 ], [ 7.049268525000059, 51.51094157700004 ], [ 7.021096389000036, 51.518519013000059 ], [ 7.010207, 51.532728499000029 ], [ 7.013843295000072, 51.538653049000061 ], [ 7.030502316000025, 51.54779682000003 ], [ 7.020565734000058, 51.553165689000082 ], [ 7.019061099000055, 51.560531425000079 ], [ 7.014406677000068, 51.563821002000054 ], [ 7.016090063000036, 51.567275516000052 ], [ 7.012198734000037, 51.574351390000061 ], [ 7.01577584000006, 51.581573361000039 ], [ 7.013704793000045, 51.585714267000071 ], [ 6.994241102000046, 51.595843915000046 ], [ 6.99624086700004, 51.619671362000076 ], [ 6.987663, 51.622809499000027 ], [ 7.017990486000031, 51.626488047000066 ], [ 7.023303490000046, 51.631205956000031 ], [ 7.032435, 51.63077049900005 ], [ 7.033754023000029, 51.62528289200003 ], [ 7.067252, 51.615063999000029 ], [ 7.076604051000061, 51.604423746000066 ], [ 7.075768234000066, 51.589754697000046 ], [ 7.105329272000063, 51.593658841000035 ], [ 7.120660222000026, 51.586100639000051 ], [ 7.12849879700002, 51.576403279000033 ], [ 7.138096566000058, 51.57213033000005 ], [ 7.145057, 51.55224049900005 ], [ 7.129537709000033, 51.552108106000048 ], [ 7.124204677000023, 51.54827051400008 ], [ 7.143231760000049, 51.513128853000069 ], [ 7.139130641000065, 51.509004403000063 ], [ 7.139416500000038, 51.50553349900008 ], [ 7.152063069000064, 51.504161851000049 ], [ 7.160402977000047, 51.50807203100004 ], [ 7.17167726200006, 51.504763959000059 ], [ 7.191668108000044, 51.509811102000072 ], [ 7.194299408000063, 51.51667939500004 ], [ 7.199939483000037, 51.520920914000044 ], [ 7.228395146000025, 51.517987129000062 ], [ 7.24959302000002, 51.522196906000033 ], [ 7.253913759000056, 51.520468391000065 ], [ 7.257347615000072, 51.52684264100003 ], [ 7.276503824000031, 51.524504558000046 ], [ 7.285794835000047, 51.526343286000042 ], [ 7.293978500000037, 51.531994499000064 ], [ 7.314603, 51.522319999000047 ], [ 7.349461735000034, 51.522935079000035 ], [ 7.36237789300003, 51.529279195000072 ], [ 7.349615467000035, 51.541328241000031 ], [ 7.353171078000059, 51.550715069000034 ], [ 7.35117965400002, 51.567054827000049 ], [ 7.339651927000034, 51.576348993000067 ], [ 7.353303716000028, 51.582745806000048 ], [ 7.36934758700005, 51.582970475000081 ], [ 7.371728, 51.59080349900006 ], [ 7.394673563000026, 51.587421167000059 ], [ 7.401467039000067, 51.593300622000072 ], [ 7.417934, 51.599519999000051 ], [ 7.424952872000063, 51.593923570000072 ], [ 7.42197174100005, 51.586826013000064 ], [ 7.44527499700007, 51.581647536000048 ], [ 7.490985323000075, 51.592513004000068 ], [ 7.498185042000046, 51.591049524000027 ], [ 7.504047307000064, 51.580867129000069 ], [ 7.519180299000027, 51.576775672000053 ], [ 7.563501903000031, 51.585389122000038 ], [ 7.583723021000026, 51.581807838000032 ], [ 7.590543, 51.583158499000035 ], [ 7.596456391000061, 51.575942862000034 ], [ 7.591174773000034, 51.571177256000055 ], [ 7.592342012000074, 51.565986910000049 ], [ 7.605619341000022, 51.567018555000061 ], [ 7.604396067000039, 51.558458354000038 ], [ 7.607031266000035, 51.549988964000079 ], [ 7.62509959700003, 51.551355246000071 ], [ 7.632242500000075, 51.548670499000082 ], [ 7.631133244000068, 51.540506015000062 ], [ 7.636926221000067, 51.528139493000026 ], [ 7.636080153000023, 51.523122019000027 ], [ 7.631983500000047, 51.520276999000032 ], [ 7.617988947000072, 51.517719967000062 ], [ 7.597448663000023, 51.508956438000041 ], [ 7.597222095000063, 51.496006444000045 ], [ 7.607552026000064, 51.48015904600004 ], [ 7.604502500000024, 51.476225499000066 ], [ 7.586606839000069, 51.466038333000029 ], [ 7.571685875000071, 51.474524141000074 ], [ 7.547119707000036, 51.466559674000052 ], [ 7.543770596000059, 51.462322015000041 ], [ 7.54928478100004, 51.455762740000068 ], [ 7.538128875000041, 51.450341810000054 ], [ 7.53105496400002, 51.437786493000033 ], [ 7.513486500000056, 51.432603613000026 ], [ 7.506283908000057, 51.427185524000038 ], [ 7.508453, 51.417940999000052 ], [ 7.465332500000045, 51.41607299900005 ], [ 7.466330421000066, 51.434561503000054 ], [ 7.456412223000029, 51.437050889000034 ], [ 7.423623500000076, 51.432934499000055 ], [ 7.413861022000049, 51.450713162000056 ], [ 7.390407331000063, 51.461713920000079 ], [ 7.386698925000076, 51.475197054000034 ], [ 7.380472057000077, 51.478242047000037 ], [ 7.372801492000065, 51.477192113000058 ], [ 7.370046309000031, 51.481950169000072 ], [ 7.348194, 51.482669499000053 ], [ 7.348447888000067, 51.46582148400006 ] ] ] } }
]
}
