{
"type": "FeatureCollection",
"name": "eurometropole_strasbourg_boundary_2025-09-12_09-39-11",
"crs": { "type": "name", "properties": { "name": "urn:ogc:def:crs:OGC:1.3:CRS84" } },
"features": [
{ "type": "Feature", "properties": { "city": "Eurométropole de Strasbourg" }, "geometry": { "type": "Polygon", "coordinates": [ [ [ 7.83604, 48.63337 ], [ 7.8335, 48.62603 ], [ 7.8314, 48.62157 ], [ 7.82912, 48.61813 ], [ 7.82659, 48.61519 ], [ 7.80485, 48.59268 ], [ 7.80225, 48.58894 ], [ 7.80108, 48.58624 ], [ 7.80026, 48.58257 ], [ 7.80028, 48.57932 ], [ 7.80082, 48.57643 ], [ 7.803, 48.57064 ], [ 7.8047, 48.56473 ], [ 7.80531, 48.56131 ], [ 7.80586, 48.55503 ], [ 7.8058, 48.55056 ], [ 7.80533, 48.54707 ], [ 7.80406, 48.54246 ], [ 7.80369, 48.54026 ], [ 7.80362, 48.53607 ], [ 7.80395, 48.53377 ], [ 7.80595, 48.52685 ], [ 7.80666, 48.52322 ], [ 7.80661, 48.51922 ], [ 7.80583, 48.51557 ], [ 7.80494, 48.51312 ], [ 7.80334, 48.51036 ], [ 7.80004, 48.50608 ], [ 7.79607, 48.50254 ], [ 7.79197, 48.50019 ], [ 7.78819, 48.49869 ], [ 7.77829, 48.49537 ], [ 7.7725, 48.4929 ], [ 7.7708, 48.49195 ], [ 7.76823, 48.48963 ], [ 7.76713, 48.48681 ], [ 7.76729, 48.47614 ], [ 7.7667, 48.46416 ], [ 7.76644, 48.46188 ], [ 7.76549, 48.45772 ], [ 7.76423, 48.45391 ], [ 7.76232, 48.44942 ], [ 7.76009, 48.4454 ], [ 7.75334, 48.43399 ], [ 7.75084, 48.43463 ], [ 7.7457, 48.43679 ], [ 7.74004, 48.43885 ], [ 7.73959, 48.44065 ], [ 7.74004, 48.44196 ], [ 7.74554, 48.44698 ], [ 7.74585, 48.44795 ], [ 7.74221, 48.44896 ], [ 7.74076, 48.44802 ], [ 7.73888, 48.44768 ], [ 7.73722, 48.44667 ], [ 7.73494, 48.44472 ], [ 7.73252, 48.44434 ], [ 7.72683, 48.44633 ], [ 7.71926, 48.44917 ], [ 7.71745, 48.44969 ], [ 7.70709, 48.4514 ], [ 7.70401, 48.4543 ], [ 7.70283, 48.4543 ], [ 7.70252, 48.45273 ], [ 7.701, 48.44993 ], [ 7.699, 48.45018 ], [ 7.69515, 48.45093 ], [ 7.69545, 48.45247 ], [ 7.69338, 48.45293 ], [ 7.6947, 48.455 ], [ 7.69701, 48.45717 ], [ 7.69605, 48.46001 ], [ 7.69495, 48.46172 ], [ 7.69563, 48.46383 ], [ 7.69446, 48.46714 ], [ 7.69525, 48.46861 ], [ 7.6938, 48.47085 ], [ 7.69723, 48.47343 ], [ 7.69624, 48.47425 ], [ 7.69573, 48.47642 ], [ 7.69613, 48.47802 ], [ 7.69825, 48.4794 ], [ 7.69826, 48.48227 ], [ 7.69504, 48.48155 ], [ 7.6944, 48.48209 ], [ 7.69002, 48.48266 ], [ 7.69011, 48.4836 ], [ 7.6839, 48.48361 ], [ 7.68401, 48.48682 ], [ 7.68167, 48.48752 ], [ 7.68127, 48.48559 ], [ 7.6797, 48.4856 ], [ 7.67864, 48.4863 ], [ 7.67836, 48.48739 ], [ 7.67484, 48.48744 ], [ 7.67191, 48.48745 ], [ 7.67025, 48.48784 ], [ 7.66778, 48.48766 ], [ 7.66635, 48.48698 ], [ 7.66473, 48.48561 ], [ 7.66015, 48.48448 ], [ 7.65684, 48.48129 ], [ 7.65611, 48.47883 ], [ 7.6544, 48.47826 ], [ 7.65311, 48.47726 ], [ 7.64933, 48.47709 ], [ 7.6482, 48.47607 ], [ 7.64668, 48.47602 ], [ 7.64466, 48.47775 ], [ 7.64317, 48.47774 ], [ 7.64179, 48.47702 ], [ 7.64016, 48.47711 ], [ 7.63935, 48.4784 ], [ 7.6392, 48.48139 ], [ 7.63791, 48.48283 ], [ 7.63478, 48.48331 ], [ 7.6326, 48.48168 ], [ 7.63277, 48.48094 ], [ 7.63167, 48.47996 ], [ 7.63172, 48.47893 ], [ 7.62934, 48.4788 ], [ 7.6247, 48.47902 ], [ 7.6198, 48.47809 ], [ 7.61666, 48.47719 ], [ 7.61284, 48.47698 ], [ 7.6083, 48.47501 ], [ 7.59778, 48.48164 ], [ 7.59168, 48.48559 ], [ 7.59187, 48.48666 ], [ 7.59223, 48.48723 ], [ 7.59257, 48.49046 ], [ 7.59408, 48.49074 ], [ 7.5939, 48.49426 ], [ 7.59478, 48.49546 ], [ 7.59366, 48.49786 ], [ 7.59025, 48.50322 ], [ 7.59026, 48.5039 ], [ 7.58798, 48.50897 ], [ 7.58753, 48.50894 ], [ 7.58572, 48.5128 ], [ 7.58922, 48.51349 ], [ 7.59122, 48.51354 ], [ 7.59157, 48.51172 ], [ 7.59229, 48.51141 ], [ 7.60819, 48.52003 ], [ 7.61174, 48.52206 ], [ 7.6111, 48.52247 ], [ 7.61175, 48.52438 ], [ 7.61352, 48.52445 ], [ 7.61289, 48.52973 ], [ 7.61062, 48.53191 ], [ 7.60874, 48.53629 ], [ 7.6069, 48.53686 ], [ 7.6089, 48.53783 ], [ 7.60721, 48.53942 ], [ 7.60615, 48.54183 ], [ 7.60537, 48.54326 ], [ 7.60662, 48.54451 ], [ 7.60548, 48.54534 ], [ 7.60435, 48.54704 ], [ 7.60577, 48.54744 ], [ 7.60608, 48.55019 ], [ 7.6049, 48.55025 ], [ 7.60334, 48.55289 ], [ 7.60126, 48.55428 ], [ 7.60093, 48.55188 ], [ 7.59937, 48.55225 ], [ 7.59868, 48.55068 ], [ 7.59547, 48.54994 ], [ 7.59218, 48.55132 ], [ 7.58716, 48.55185 ], [ 7.58707, 48.55374 ], [ 7.58819, 48.55592 ], [ 7.583, 48.5582 ], [ 7.57962, 48.55912 ], [ 7.57969, 48.55815 ], [ 7.57879, 48.55723 ], [ 7.57669, 48.55656 ], [ 7.57465, 48.55752 ], [ 7.57455, 48.55817 ], [ 7.57272, 48.55849 ], [ 7.57116, 48.5601 ], [ 7.57002, 48.56024 ], [ 7.57081, 48.56217 ], [ 7.57235, 48.56482 ], [ 7.57347, 48.5684 ], [ 7.57317, 48.57226 ], [ 7.57339, 48.57389 ], [ 7.57651, 48.57439 ], [ 7.58011, 48.57532 ], [ 7.58516, 48.57708 ], [ 7.59032, 48.57826 ], [ 7.58904, 48.57941 ], [ 7.58641, 48.5803 ], [ 7.58388, 48.58061 ], [ 7.57927, 48.58151 ], [ 7.57324, 48.58213 ], [ 7.57082, 48.58191 ], [ 7.56463, 48.58249 ], [ 7.56256, 48.58225 ], [ 7.55844, 48.5828 ], [ 7.55832, 48.58231 ], [ 7.55222, 48.5828 ], [ 7.55209, 48.58346 ], [ 7.54769, 48.58422 ], [ 7.54443, 48.58457 ], [ 7.5458, 48.58469 ], [ 7.54571, 48.5863 ], [ 7.54308, 48.58775 ], [ 7.54094, 48.58936 ], [ 7.54008, 48.59258 ], [ 7.53914, 48.59329 ], [ 7.53911, 48.59453 ], [ 7.53784, 48.59509 ], [ 7.53802, 48.59634 ], [ 7.53947, 48.59665 ], [ 7.54551, 48.59901 ], [ 7.55102, 48.60074 ], [ 7.55583, 48.60078 ], [ 7.56141, 48.60193 ], [ 7.56486, 48.60216 ], [ 7.56518, 48.60181 ], [ 7.56556, 48.60054 ], [ 7.56645, 48.60001 ], [ 7.56731, 48.59803 ], [ 7.56892, 48.59533 ], [ 7.57128, 48.59309 ], [ 7.57307, 48.59243 ], [ 7.57553, 48.59242 ], [ 7.57793, 48.59021 ], [ 7.58055, 48.59001 ], [ 7.58371, 48.58924 ], [ 7.5838, 48.58872 ], [ 7.58681, 48.58885 ], [ 7.58716, 48.58816 ], [ 7.58892, 48.58782 ], [ 7.59105, 48.58824 ], [ 7.59088, 48.58886 ], [ 7.59531, 48.58901 ], [ 7.5989, 48.58948 ], [ 7.59893, 48.58895 ], [ 7.61029, 48.59151 ], [ 7.60873, 48.59309 ], [ 7.61595, 48.5951 ], [ 7.62107, 48.59617 ], [ 7.62067, 48.59788 ], [ 7.62454, 48.59819 ], [ 7.62751, 48.59888 ], [ 7.62818, 48.59788 ], [ 7.62967, 48.59822 ], [ 7.63088, 48.59861 ], [ 7.62953, 48.60061 ], [ 7.63252, 48.60071 ], [ 7.63176, 48.60276 ], [ 7.63432, 48.60286 ], [ 7.63423, 48.60486 ], [ 7.63367, 48.60646 ], [ 7.63242, 48.60785 ], [ 7.63508, 48.6094 ], [ 7.64034, 48.61182 ], [ 7.64221, 48.61238 ], [ 7.64433, 48.61251 ], [ 7.64994, 48.61215 ], [ 7.6539, 48.61072 ], [ 7.65448, 48.60995 ], [ 7.65931, 48.61099 ], [ 7.66128, 48.61161 ], [ 7.66671, 48.61234 ], [ 7.6686, 48.61262 ], [ 7.67674, 48.62002 ], [ 7.67932, 48.62121 ], [ 7.68253, 48.62022 ], [ 7.68334, 48.61952 ], [ 7.68469, 48.62004 ], [ 7.68599, 48.6195 ], [ 7.68962, 48.62171 ], [ 7.68858, 48.62256 ], [ 7.68904, 48.62335 ], [ 7.68914, 48.62548 ], [ 7.69033, 48.62633 ], [ 7.69113, 48.62786 ], [ 7.69374, 48.62905 ], [ 7.6924, 48.63003 ], [ 7.69254, 48.63187 ], [ 7.69637, 48.63342 ], [ 7.69999, 48.63602 ], [ 7.70157, 48.63926 ], [ 7.70152, 48.64065 ], [ 7.69682, 48.6405 ], [ 7.69612, 48.64268 ], [ 7.69351, 48.64243 ], [ 7.69183, 48.64405 ], [ 7.68995, 48.64353 ], [ 7.68932, 48.64466 ], [ 7.68669, 48.64443 ], [ 7.68546, 48.64472 ], [ 7.68228, 48.64649 ], [ 7.68242, 48.64733 ], [ 7.67822, 48.64916 ], [ 7.67827, 48.65021 ], [ 7.67489, 48.65155 ], [ 7.67226, 48.65217 ], [ 7.66862, 48.65361 ], [ 7.66912, 48.65503 ], [ 7.67079, 48.65455 ], [ 7.67169, 48.65642 ], [ 7.6709, 48.65667 ], [ 7.67229, 48.65932 ], [ 7.66997, 48.65981 ], [ 7.67035, 48.66186 ], [ 7.66988, 48.66252 ], [ 7.67217, 48.66346 ], [ 7.67277, 48.66439 ], [ 7.67396, 48.6643 ], [ 7.67672, 48.66588 ], [ 7.67639, 48.66714 ], [ 7.68104, 48.66737 ], [ 7.68087, 48.66841 ], [ 7.68331, 48.66916 ], [ 7.68373, 48.66857 ], [ 7.6864, 48.66907 ], [ 7.68836, 48.66869 ], [ 7.68743, 48.67111 ], [ 7.68593, 48.67157 ], [ 7.68406, 48.67148 ], [ 7.68346, 48.6735 ], [ 7.68237, 48.6741 ], [ 7.68253, 48.67574 ], [ 7.6764, 48.67675 ], [ 7.675, 48.67621 ], [ 7.67473, 48.67785 ], [ 7.67572, 48.6805 ], [ 7.67391, 48.6809 ], [ 7.67202, 48.6828 ], [ 7.67014, 48.68391 ], [ 7.66859, 48.68635 ], [ 7.66851, 48.68774 ], [ 7.67255, 48.68881 ], [ 7.67216, 48.68951 ], [ 7.67828, 48.69092 ], [ 7.67815, 48.69242 ], [ 7.68334, 48.69231 ], [ 7.68553, 48.69309 ], [ 7.68513, 48.69367 ], [ 7.68642, 48.69492 ], [ 7.68741, 48.69457 ], [ 7.68847, 48.69558 ], [ 7.69147, 48.69666 ], [ 7.69258, 48.69453 ], [ 7.69401, 48.69442 ], [ 7.69563, 48.69509 ], [ 7.697, 48.69672 ], [ 7.69902, 48.69731 ], [ 7.70056, 48.69729 ], [ 7.703, 48.69873 ], [ 7.70504, 48.69941 ], [ 7.7074, 48.70139 ], [ 7.7099, 48.70231 ], [ 7.71151, 48.70212 ], [ 7.71331, 48.6953 ], [ 7.7152, 48.68595 ], [ 7.71902, 48.68603 ], [ 7.72199, 48.68748 ], [ 7.72781, 48.68754 ], [ 7.73326, 48.68719 ], [ 7.74724, 48.68652 ], [ 7.74727, 48.68449 ], [ 7.74662, 48.67961 ], [ 7.74718, 48.67826 ], [ 7.74689, 48.67625 ], [ 7.74542, 48.67292 ], [ 7.74877, 48.67226 ], [ 7.75049, 48.67311 ], [ 7.75403, 48.67319 ], [ 7.75748, 48.67239 ], [ 7.75987, 48.67148 ], [ 7.76238, 48.66935 ], [ 7.76404, 48.66882 ], [ 7.76506, 48.66732 ], [ 7.76801, 48.66642 ], [ 7.76978, 48.66934 ], [ 7.7713, 48.67013 ], [ 7.77359, 48.67024 ], [ 7.77729, 48.66931 ], [ 7.77804, 48.66853 ], [ 7.78127, 48.66981 ], [ 7.78661, 48.66994 ], [ 7.79652, 48.66935 ], [ 7.80846, 48.67946 ], [ 7.81629, 48.68601 ], [ 7.81787, 48.68744 ], [ 7.82307, 48.68457 ], [ 7.83102, 48.67971 ], [ 7.8343, 48.6809 ], [ 7.83915, 48.678 ], [ 7.84268, 48.67537 ], [ 7.84007, 48.674 ], [ 7.84214, 48.67216 ], [ 7.8429, 48.67037 ], [ 7.84438, 48.67063 ], [ 7.8453, 48.66966 ], [ 7.85181, 48.66843 ], [ 7.85231, 48.66717 ], [ 7.8535, 48.66715 ], [ 7.8551, 48.66576 ], [ 7.85927, 48.66698 ], [ 7.85961, 48.66825 ], [ 7.8589, 48.66889 ], [ 7.86069, 48.6697 ], [ 7.85987, 48.67046 ], [ 7.86044, 48.67251 ], [ 7.86192, 48.67394 ], [ 7.86456, 48.67511 ], [ 7.87229, 48.67513 ], [ 7.87322, 48.67483 ], [ 7.87457, 48.67336 ], [ 7.87752, 48.67305 ], [ 7.88099, 48.67494 ], [ 7.88589, 48.67567 ], [ 7.88781, 48.67501 ], [ 7.88824, 48.67391 ], [ 7.88586, 48.67104 ], [ 7.89099, 48.67082 ], [ 7.89384, 48.66805 ], [ 7.8959, 48.66695 ], [ 7.89194, 48.66384 ], [ 7.88751, 48.66116 ], [ 7.88325, 48.65917 ], [ 7.86251, 48.65088 ], [ 7.84899, 48.64712 ], [ 7.8443, 48.64519 ], [ 7.84223, 48.64384 ], [ 7.83942, 48.641 ], [ 7.83767, 48.63785 ], [ 7.83604, 48.63337 ] ] ] } }
]
}
