{
"type": "FeatureCollection",
"name": "gdańsk_boundary_2025-09-12_09-39-11",
"crs": { "type": "name", "properties": { "name": "urn:ogc:def:crs:OGC:1.3:CRS84" } },
"features": [
{ "type": "Feature", "properties": { "city": "Gdańsk" }, "geometry": { "type": "Polygon", "coordinates": [ [ [ 18.451045, 54.443251499000041 ], [ 18.459125770000071, 54.445363212000075 ], [ 18.476973473000044, 54.432994288000032 ], [ 18.486318251000057, 54.436000484000033 ], [ 18.489136537000036, 54.429082133000065 ], [ 18.499189052000077, 54.428062155000077 ], [ 18.507543500000054, 54.422749999000075 ], [ 18.556388215000027, 54.420471751000036 ], [ 18.591159, 54.430185499000061 ], [ 18.615512581000075, 54.417348099000037 ], [ 18.636400258000037, 54.410032645000058 ], [ 18.653587995000066, 54.408557583000061 ], [ 18.662968391000049, 54.412251730000037 ], [ 18.67645694600003, 54.408174045000067 ], [ 18.695339833000048, 54.391681002000041 ], [ 18.705586835000076, 54.385811895000074 ], [ 18.71194330700007, 54.386104790000047 ], [ 18.716672399000061, 54.380962780000061 ], [ 18.729355269000052, 54.375922923000076 ], [ 18.780401913000048, 54.370698573000027 ], [ 18.832614013000068, 54.356135971000072 ], [ 18.880404031000069, 54.348029962000055 ], [ 18.92224507800006, 54.346888257000046 ], [ 18.936717380000061, 54.352247509000051 ], [ 18.938425553000059, 54.358080341000061 ], [ 18.945993528000031, 54.362228420000065 ], [ 18.948388445000035, 54.362617663000037 ], [ 18.950029500000028, 54.358310499000027 ], [ 18.948447500000043, 54.355663499000059 ], [ 18.946273500000075, 54.351096999000049 ], [ 18.942900500000064, 54.342205999000043 ], [ 18.935491500000069, 54.319706999000061 ], [ 18.934372, 54.31532899900003 ], [ 18.933701500000041, 54.310847499000033 ], [ 18.933481500000028, 54.30779349900007 ], [ 18.933642500000076, 54.301708999000027 ], [ 18.934222, 54.297427999000035 ], [ 18.934664, 54.295238999000048 ], [ 18.935301500000037, 54.292909499000075 ], [ 18.936847500000056, 54.288354499000036 ], [ 18.940698, 54.280205499000033 ], [ 18.930153688000075, 54.282775740000034 ], [ 18.923499536000065, 54.287677366000082 ], [ 18.919363556000064, 54.300868444000059 ], [ 18.909516622000069, 54.312373291000029 ], [ 18.896627405000061, 54.314300287000037 ], [ 18.876109447000033, 54.310575595000046 ], [ 18.868651500000055, 54.312144999000054 ], [ 18.859387563000041, 54.320283740000036 ], [ 18.840253612000026, 54.328450057000055 ], [ 18.830157535000069, 54.339107762000026 ], [ 18.813886221000075, 54.344643922000046 ], [ 18.793768261000025, 54.346140024000078 ], [ 18.762891439000043, 54.333663968000053 ], [ 18.752380776000052, 54.33529362400003 ], [ 18.743576793000045, 54.340768363000052 ], [ 18.728964996000059, 54.341035961000046 ], [ 18.706288463000078, 54.31426775400007 ], [ 18.688117696000063, 54.312640367000029 ], [ 18.687083919000031, 54.300987145000079 ], [ 18.640451189000032, 54.290685272000076 ], [ 18.642045, 54.279676499000061 ], [ 18.635899461000065, 54.27538048200006 ], [ 18.624068500000078, 54.276724999000066 ], [ 18.605949722000048, 54.27893139400004 ], [ 18.603608888000053, 54.286108316000082 ], [ 18.610313677000022, 54.291893938000044 ], [ 18.599304837000034, 54.302839078000034 ], [ 18.59218525700004, 54.305398960000048 ], [ 18.579504500000041, 54.303223499000069 ], [ 18.572246506000056, 54.305401497000048 ], [ 18.571359290000032, 54.312222183000074 ], [ 18.564582643000051, 54.317248149000079 ], [ 18.552265298000066, 54.317672102000074 ], [ 18.544637633000036, 54.313173195000047 ], [ 18.53770537500003, 54.315724172000046 ], [ 18.53502571100006, 54.328109692000055 ], [ 18.529130863000034, 54.335978874000034 ], [ 18.500821805000044, 54.333680343000026 ], [ 18.494189672000061, 54.328843023000047 ], [ 18.491721330000075, 54.319124223000074 ], [ 18.487985, 54.317011499000046 ], [ 18.477376939000067, 54.325794933000054 ], [ 18.459835148000025, 54.332107761000032 ], [ 18.466136681000023, 54.349122795000028 ], [ 18.457998558000043, 54.355509593000079 ], [ 18.443469103000041, 54.358178877000057 ], [ 18.445149919000073, 54.376189356000054 ], [ 18.433217518000049, 54.383537979000039 ], [ 18.458478269000068, 54.396810137000045 ], [ 18.464294987000073, 54.403031522000049 ], [ 18.46217249700004, 54.407347379000043 ], [ 18.444032239000023, 54.40949573100005 ], [ 18.446978026000068, 54.42125466300007 ], [ 18.45532683700003, 54.432875569000032 ], [ 18.44492423500003, 54.438129268000068 ], [ 18.451045, 54.443251499000041 ] ] ] } }
]
}
