{
"type": "FeatureCollection",
"name": "madrid_boundary_2025-09-12_09-39-11",
"crs": { "type": "name", "properties": { "name": "urn:ogc:def:crs:OGC:1.3:CRS84" } },
"features": [
{ "type": "Feature", "properties": { "city": "Madrid" }, "geometry": { "type": "Polygon", "coordinates": [ [ [ -3.834001499999943, 40.396018499000036 ], [ -3.820501891999925, 40.396313009000039 ], [ -3.803272263999929, 40.392057779000027 ], [ -3.781212262999929, 40.394691554000076 ], [ -3.775105415999974, 40.402048343000047 ], [ -3.780559785999969, 40.419303613000068 ], [ -3.771326631999955, 40.429736569000056 ], [ -3.770719833999976, 40.439606103000074 ], [ -3.772460630999944, 40.443719496000028 ], [ -3.78829621899996, 40.444018160000041 ], [ -3.795646094999938, 40.457198018000042 ], [ -3.804008170999964, 40.462663710000072 ], [ -3.834193, 40.464376499000025 ], [ -3.83748258199995, 40.468232835000038 ], [ -3.836566, 40.475082499000052 ], [ -3.833437709999941, 40.489186909000068 ], [ -3.838452229999973, 40.499277176000078 ], [ -3.837881823999965, 40.505357908000065 ], [ -3.852508872999977, 40.510743173000037 ], [ -3.854272737999963, 40.524337154000079 ], [ -3.86636460699998, 40.544440209000072 ], [ -3.875154376999944, 40.557808250000051 ], [ -3.879861207999966, 40.559564438000052 ], [ -3.883457655999962, 40.560906327000055 ], [ -3.88729415399996, 40.567660347000071 ], [ -3.885416499999963, 40.574413999000058 ], [ -3.883525499999962, 40.585234999000079 ], [ -3.879861207999966, 40.587062176000074 ], [ -3.870898875999956, 40.591531188000033 ], [ -3.85639333499995, 40.58816026900007 ], [ -3.842278499999964, 40.592500499000039 ], [ -3.816893079999943, 40.595055395000031 ], [ -3.808729092999954, 40.59848364700008 ], [ -3.806878901999937, 40.600885205000054 ], [ -3.810351, 40.609427499000049 ], [ -3.801464659999965, 40.605711262000057 ], [ -3.801591704999964, 40.598968977000027 ], [ -3.77574556899998, 40.601211779000039 ], [ -3.742391002999966, 40.590822180000032 ], [ -3.736213340999939, 40.586262141000077 ], [ -3.720624837999935, 40.582480733000068 ], [ -3.710553790999938, 40.583389428000032 ], [ -3.696694395999941, 40.589907132000064 ], [ -3.687145127999941, 40.606217909000065 ], [ -3.667980263999937, 40.619371771000033 ], [ -3.667817499999956, 40.629560499000036 ], [ -3.659889434999968, 40.640429554000036 ], [ -3.650763397999981, 40.641962928000055 ], [ -3.637804320999976, 40.636897717000068 ], [ -3.625674499999946, 40.616710499000078 ], [ -3.619157365999968, 40.612368410000045 ], [ -3.614883462999956, 40.601220310000031 ], [ -3.602465499999937, 40.591938936000076 ], [ -3.60696455599998, 40.584876319000045 ], [ -3.623588337999934, 40.574732975000074 ], [ -3.649449884999967, 40.57764841200003 ], [ -3.661062252999955, 40.591477673000043 ], [ -3.67398449999996, 40.588820499000065 ], [ -3.697482448999949, 40.577060680000045 ], [ -3.689170825999952, 40.56760750400008 ], [ -3.67715237799996, 40.542443970000079 ], [ -3.670314424999958, 40.534812855000041 ], [ -3.675688132999937, 40.526581523000061 ], [ -3.66663134099997, 40.523809551000056 ], [ -3.658102808999956, 40.512689741000031 ], [ -3.642050337999933, 40.507779242000026 ], [ -3.614893346999963, 40.510266107000064 ], [ -3.599126557999966, 40.501364288000048 ], [ -3.572027073999948, 40.511934258000053 ], [ -3.554102, 40.511297999000078 ], [ -3.553954268999973, 40.502190318000032 ], [ -3.542309, 40.49378743300008 ], [ -3.530682499999955, 40.471243499000025 ], [ -3.525565572999938, 40.468059964000076 ], [ -3.528554253999971, 40.461658026000066 ], [ -3.527520033999963, 40.455785172000049 ], [ -3.533481022999979, 40.452302673000077 ], [ -3.530990499999973, 40.446835999000029 ], [ -3.574527686999943, 40.436732154000026 ], [ -3.577861015999929, 40.433088886000064 ], [ -3.575998476999928, 40.424414014000035 ], [ -3.578708736999943, 40.417177319000075 ], [ -3.573378626999954, 40.412233195000056 ], [ -3.540549898999927, 40.410874050000075 ], [ -3.531161992999955, 40.415085462000036 ], [ -3.531032, 40.420047499000077 ], [ -3.519758, 40.409889999000029 ], [ -3.520634899999948, 40.392732265000063 ], [ -3.527966394999964, 40.389915852000058 ], [ -3.54234267399994, 40.391812315000038 ], [ -3.548503545999949, 40.380747167000038 ], [ -3.554112772999929, 40.355358513000056 ], [ -3.582879495999975, 40.324738571000069 ], [ -3.58349312699994, 40.316749332000029 ], [ -3.575967499999933, 40.314848999000048 ], [ -3.596876020999957, 40.312205577000043 ], [ -3.609254418999967, 40.314042074000042 ], [ -3.629743664999978, 40.320727704000035 ], [ -3.648761107999974, 40.332601157000056 ], [ -3.692787482999961, 40.320659943000067 ], [ -3.707436633999976, 40.32310127900007 ], [ -3.708913681999945, 40.32638554600004 ], [ -3.720446639999977, 40.329891554000028 ], [ -3.72476649999993, 40.334947499000066 ], [ -3.722012996999979, 40.36488100400004 ], [ -3.756678422999926, 40.357569478000073 ], [ -3.778956857999958, 40.36142970700007 ], [ -3.787605, 40.35865749900006 ], [ -3.810576057999981, 40.365015345000074 ], [ -3.834001499999943, 40.396018499000036 ] ] ] } }
]
}
