{
"type": "FeatureCollection",
"name": "rome_boundary_2025-09-12_09-39-11",
"crs": { "type": "name", "properties": { "name": "urn:ogc:def:crs:OGC:1.3:CRS84" } },
"features": [
{ "type": "Feature", "properties": { "city": "Rome" }, "geometry": { "type": "MultiPolygon", "coordinates": [ [ [ [ 12.847971995000023, 41.872164708000071 ], [ 12.846576500000026, 41.86810299900003 ], [ 12.84189850000007, 41.868475999000054 ], [ 12.820846867000057, 41.881351593000034 ], [ 12.800475715000061, 41.899784167000064 ], [ 12.776266501000066, 41.910744536000038 ], [ 12.741490500000054, 41.897571499000037 ], [ 12.736453122000057, 41.898497083000052 ], [ 12.735656912000024, 41.893098948000045 ], [ 12.727739, 41.886450999000033 ], [ 12.705155258000048, 41.88975004200006 ], [ 12.700218464000045, 41.888939262000065 ], [ 12.699332437000066, 41.88322193700003 ], [ 12.706102498000064, 41.865322512000034 ], [ 12.734721849000039, 41.846439548000035 ], [ 12.740048862000037, 41.831800418000057 ], [ 12.727345998000033, 41.827658880000058 ], [ 12.72345152500003, 41.83704085200003 ], [ 12.716198357000053, 41.840220485000032 ], [ 12.711385, 41.836943999000027 ], [ 12.70757214200006, 41.834918838000078 ], [ 12.70463, 41.84002999900008 ], [ 12.692135834000055, 41.843286945000045 ], [ 12.683966729000076, 41.842171273000076 ], [ 12.680844437000076, 41.848123598000029 ], [ 12.674602717000027, 41.851067003000026 ], [ 12.66178220200004, 41.850353893000033 ], [ 12.659647606000021, 41.844057742000075 ], [ 12.652498411000067, 41.846987770000055 ], [ 12.650629061000075, 41.835443157000043 ], [ 12.644308456000033, 41.829973017000043 ], [ 12.657456376000027, 41.819605186000047 ], [ 12.650332235000064, 41.817908137000074 ], [ 12.630906494000044, 41.824786570000072 ], [ 12.628857716000027, 41.819181985000057 ], [ 12.63842, 41.809690999000054 ], [ 12.644260385000052, 41.79785189100005 ], [ 12.638133500000038, 41.79631099900007 ], [ 12.627807405000055, 41.805984583000054 ], [ 12.605744703000028, 41.808315038000046 ], [ 12.589274120000027, 41.819374604000075 ], [ 12.590258049000056, 41.806206349000036 ], [ 12.597415811000076, 41.796230044000026 ], [ 12.58989, 41.779423999000073 ], [ 12.584907635000036, 41.761835277000046 ], [ 12.59245799100006, 41.757216982000045 ], [ 12.586314479000066, 41.753212613000073 ], [ 12.588342832000023, 41.747830536000038 ], [ 12.586273863000031, 41.741314372000033 ], [ 12.596601948000057, 41.739347750000036 ], [ 12.599242, 41.736060999000074 ], [ 12.594105987000034, 41.732729931000051 ], [ 12.596766, 41.730175999000039 ], [ 12.591860566000037, 41.723134767000033 ], [ 12.599346506000074, 41.718776907000063 ], [ 12.607420339000043, 41.705750049000073 ], [ 12.599779500000068, 41.690091499000062 ], [ 12.597203500000035, 41.690933499000039 ], [ 12.595341, 41.692137999000067 ], [ 12.574662970000077, 41.713461433000077 ], [ 12.552363287000048, 41.710952795000026 ], [ 12.53509663400007, 41.698282845000051 ], [ 12.52449209100007, 41.695527338000034 ], [ 12.511538021000035, 41.687256957000045 ], [ 12.495487642000057, 41.693128363000028 ], [ 12.460226836000061, 41.685226748000048 ], [ 12.416086500000063, 41.655723999000031 ], [ 12.365825709000035, 41.689226449000046 ], [ 12.325090476000071, 41.709497376000058 ], [ 12.260914770000056, 41.734237463000056 ], [ 12.231206, 41.741052999000033 ], [ 12.284566516000041, 41.755918669000039 ], [ 12.278522606000024, 41.767937085000028 ], [ 12.280947251000043, 41.78290368200004 ], [ 12.286198412000033, 41.788379305000035 ], [ 12.314421221000032, 41.799096173000066 ], [ 12.304960811000058, 41.814112130000069 ], [ 12.265607140000043, 41.852596363000032 ], [ 12.258981349000067, 41.866940480000039 ], [ 12.237552039000036, 41.884509424000044 ], [ 12.255711476000045, 41.896333708000043 ], [ 12.271657551000033, 41.924882257000036 ], [ 12.29594828200004, 41.946201958000074 ], [ 12.301878313000032, 41.962892689000057 ], [ 12.287988883000025, 41.964480457000036 ], [ 12.282641253000065, 41.967943569000056 ], [ 12.26926192600007, 41.967703741000037 ], [ 12.261348233000035, 41.974655662000032 ], [ 12.250408783000069, 41.973002699000062 ], [ 12.251147519000028, 41.978632650000065 ], [ 12.246745984000029, 41.986111994000055 ], [ 12.242923112000028, 41.999488605000067 ], [ 12.242917, 42.017450499000063 ], [ 12.262635615000022, 42.019450395000035 ], [ 12.264236767000057, 42.041751411000064 ], [ 12.260928408000041, 42.050711371000034 ], [ 12.263051613000073, 42.059523806000072 ], [ 12.276101168000025, 42.062015375000044 ], [ 12.294463394000047, 42.055690121000055 ], [ 12.29665994800007, 42.060962677000077 ], [ 12.30821086800006, 42.059868327000061 ], [ 12.320911628000033, 42.075009151000074 ], [ 12.317927053000062, 42.08614325700006 ], [ 12.337573556000052, 42.094273225000052 ], [ 12.343843, 42.103862999000057 ], [ 12.359715645000051, 42.098759337000047 ], [ 12.377053515000057, 42.100344763000066 ], [ 12.391544, 42.095149499000058 ], [ 12.389809183000068, 42.086879223000039 ], [ 12.374239682000052, 42.078069765000066 ], [ 12.374235652000038, 42.056335200000035 ], [ 12.383889665000027, 42.053239401000042 ], [ 12.395179948000077, 42.039839818000075 ], [ 12.426728025000045, 42.027149058000077 ], [ 12.424975367000059, 42.035339171000032 ], [ 12.414266935000057, 42.043128575000026 ], [ 12.409565190000023, 42.056139429000041 ], [ 12.425907736000056, 42.051917101000072 ], [ 12.432177490000072, 42.045697777000044 ], [ 12.443896767000069, 42.046022406000077 ], [ 12.450109, 42.043408499000066 ], [ 12.455842681000036, 42.049252729000045 ], [ 12.455356450000068, 42.059028804000036 ], [ 12.481331989000068, 42.062941140000078 ], [ 12.476330500000074, 42.074785499000029 ], [ 12.483945941000059, 42.074547498000072 ], [ 12.494781428000067, 42.058431557000063 ], [ 12.499749400000042, 42.067303952000032 ], [ 12.511894535000067, 42.069908902000066 ], [ 12.521819105000077, 42.067143052000063 ], [ 12.526361163000047, 42.069912845000033 ], [ 12.532281391000026, 42.067281008000066 ], [ 12.544017361000044, 42.076228237000066 ], [ 12.549616431000061, 42.073227332000044 ], [ 12.561823201000038, 42.076919091000036 ], [ 12.563008997000054, 42.068397130000051 ], [ 12.566363500000023, 42.065512499000079 ], [ 12.571318031000033, 42.058607413000061 ], [ 12.578962736000051, 42.054988725000044 ], [ 12.581428620000054, 42.048106591000078 ], [ 12.587202580000053, 42.043132307000064 ], [ 12.614809500000035, 42.029434999000046 ], [ 12.611985205000053, 42.02116671400006 ], [ 12.604498888000023, 42.01973003300003 ], [ 12.607694387000038, 42.012661994000041 ], [ 12.597733809000033, 42.000994198000058 ], [ 12.616636085000039, 41.99096654300007 ], [ 12.618100500000025, 41.987065499000039 ], [ 12.614497624000023, 41.97392370700004 ], [ 12.619241878000025, 41.965351006000049 ], [ 12.641734621000069, 41.956467737000025 ], [ 12.645733118000066, 41.943968616000063 ], [ 12.654262428000038, 41.940650012000049 ], [ 12.657961854000064, 41.931625300000064 ], [ 12.668952192000063, 41.927999843000066 ], [ 12.689910500000053, 41.936063999000055 ], [ 12.693268041000067, 41.934295895000048 ], [ 12.70133277900004, 41.936996216000068 ], [ 12.713702085000023, 41.931047154000055 ], [ 12.72709453300007, 41.928704726000035 ], [ 12.735633151000059, 41.932738548000032 ], [ 12.745455440000057, 41.929474050000067 ], [ 12.753566973000034, 41.922824217000027 ], [ 12.771200985000064, 41.928459779000036 ], [ 12.779503263000038, 41.92375116200003 ], [ 12.80713, 41.916633999000055 ], [ 12.806199086000049, 41.909343724000053 ], [ 12.799317065000025, 41.908415159000072 ], [ 12.797422681000057, 41.904555966000032 ], [ 12.827119633000052, 41.890250643000059 ], [ 12.843815500000062, 41.893696499000043 ], [ 12.848722811000073, 41.886064989000033 ], [ 12.843837572000041, 41.879157238000062 ], [ 12.853644786000075, 41.874468484000033 ], [ 12.854551500000071, 41.871423499000059 ], [ 12.847971995000023, 41.872164708000071 ] ] ], [ [ [ 12.33599128700007, 42.122273704000065 ], [ 12.335485687000073, 42.113051513000073 ], [ 12.31547850000004, 42.113688999000033 ], [ 12.306772684000066, 42.10491042600006 ], [ 12.300386927000034, 42.111533703000077 ], [ 12.290158832000031, 42.113960416000054 ], [ 12.283463981000068, 42.11236901500007 ], [ 12.281336530000033, 42.118475155000056 ], [ 12.285093, 42.135743499000057 ], [ 12.297340825000049, 42.13579065700003 ], [ 12.307261500000038, 42.140949999000043 ], [ 12.33599128700007, 42.122273704000065 ] ] ] ] } }
]
}
