{
"type": "FeatureCollection",
"name": "sevilla_boundary_2025-09-12_09-39-11",
"crs": { "type": "name", "properties": { "name": "urn:ogc:def:crs:OGC:1.3:CRS84" } },
"features": [
{ "type": "Feature", "properties": { "city": "Sevilla" }, "geometry": { "type": "MultiPolygon", "coordinates": [ [ [ [ -6.026157, 37.313070499000048 ], [ -6.024181, 37.314275999000074 ], [ -6.023088499999972, 37.315375499000027 ], [ -6.02154349999995, 37.316302999000072 ], [ -6.017852499999947, 37.317093499000066 ], [ -6.015120499999966, 37.31440199900004 ], [ -6.032761, 37.300451999000074 ], [ -6.031679775999976, 37.308325914000079 ], [ -6.027458499999966, 37.311978999000075 ], [ -6.026157, 37.313070499000048 ] ] ], [ [ [ -6.018787455999927, 37.333636983000076 ], [ -6.022682, 37.350106499000049 ], [ -6.022441, 37.379591499000071 ], [ -6.02275549999996, 37.380873999000073 ], [ -6.024613963999968, 37.390849123000066 ], [ -6.016161623999949, 37.401214014000061 ], [ -6.012592499999926, 37.413392499000054 ], [ -5.99229900499995, 37.42476892500008 ], [ -6.005210972999976, 37.432099890000075 ], [ -6.011527629999932, 37.441913829000043 ], [ -6.013691078999955, 37.439053723000029 ], [ -6.013142854999955, 37.421770160000051 ], [ -6.020213291999937, 37.421007784000039 ], [ -6.023185499999954, 37.427495499000031 ], [ -6.028740499999969, 37.442632499000069 ], [ -6.023658280999939, 37.445291155000064 ], [ -6.009594499999935, 37.442788499000073 ], [ -5.999695057999929, 37.447969421000039 ], [ -5.950280622999969, 37.452740315000028 ], [ -5.918602223999926, 37.447726642000077 ], [ -5.904234274999965, 37.442537316000028 ], [ -5.865514063999967, 37.402150666000068 ], [ -5.840829474999964, 37.396082076000027 ], [ -5.818405, 37.39871049900006 ], [ -5.818672499999934, 37.393475499000033 ], [ -5.819041499999969, 37.390094999000041 ], [ -5.88772596299998, 37.385708554000075 ], [ -5.905327921999969, 37.376977740000029 ], [ -5.942007891999936, 37.366877592000037 ], [ -5.938701, 37.362035499000058 ], [ -5.940472499999942, 37.359281499000076 ], [ -5.943222, 37.352772999000024 ], [ -5.949343, 37.345668499000055 ], [ -5.955223499999931, 37.336780499000042 ], [ -5.957237499999962, 37.334911499000043 ], [ -5.957979, 37.331669499000043 ], [ -5.958739499999979, 37.329096999000058 ], [ -5.960885, 37.326278499000068 ], [ -5.963985, 37.324242999000035 ], [ -5.964607, 37.320145499000034 ], [ -5.968986499999971, 37.313416999000026 ], [ -6.001260499999944, 37.319727499000066 ], [ -6.018787455999927, 37.333636983000076 ] ] ] ] } }
]
}
