{
"type": "FeatureCollection",
"name": "stockholm_boundary_2025-09-12_09-39-11",
"crs": { "type": "name", "properties": { "name": "urn:ogc:def:crs:OGC:1.3:CRS84" } },
"features": [
{ "type": "Feature", "properties": { "city": "Stockholm" }, "geometry": { "type": "Polygon", "coordinates": [ [ [ 17.957140425000034, 59.396039576000078 ], [ 17.948086037000053, 59.386772009000083 ], [ 17.930939728000055, 59.376371450000079 ], [ 17.950528232000067, 59.367428571000062 ], [ 17.963362500000073, 59.357767499000033 ], [ 17.968794223000032, 59.352346572000044 ], [ 17.982001319000062, 59.344949576000033 ], [ 17.997419726000032, 59.340659353000035 ], [ 18.00593030400006, 59.341677410000045 ], [ 18.021780227000022, 59.339263828000071 ], [ 18.023709, 59.33991749900008 ], [ 18.031659735000062, 59.347863174000054 ], [ 18.047543490000066, 59.356016045000047 ], [ 18.043921234000038, 59.364190497000038 ], [ 18.03694961900004, 59.370791241000063 ], [ 18.050642500000038, 59.374970499000028 ], [ 18.092234767000036, 59.36650140200004 ], [ 18.106026974000031, 59.358145439000054 ], [ 18.118041363000032, 59.34589887900006 ], [ 18.127899078000041, 59.345637671000077 ], [ 18.151694547000034, 59.330105830000036 ], [ 18.150423169000078, 59.325163543000031 ], [ 18.152924092000035, 59.322425223000039 ], [ 18.149722803000031, 59.321205479000071 ], [ 18.100201269000024, 59.320836900000074 ], [ 18.086370028000033, 59.330060665000076 ], [ 18.083487589000072, 59.328009159000032 ], [ 18.088179485000069, 59.323986036000065 ], [ 18.075459852000051, 59.326661754000042 ], [ 18.078775023000048, 59.319906178000053 ], [ 18.109329500000058, 59.31498749900004 ], [ 18.111444130000052, 59.301902502000075 ], [ 18.127039991000061, 59.300558246000037 ], [ 18.120934875000046, 59.291946285000051 ], [ 18.132939856000064, 59.283785794000039 ], [ 18.149957807000078, 59.274517881000065 ], [ 18.151436883000031, 59.26615391200005 ], [ 18.170752122000067, 59.262057672000083 ], [ 18.174193468000055, 59.253737594000029 ], [ 18.178827335000051, 59.250316615000031 ], [ 18.201189, 59.248092499000052 ], [ 18.196352, 59.244609999000033 ], [ 18.194784, 59.239249999000037 ], [ 18.192814, 59.229854999000054 ], [ 18.177204, 59.232161999000027 ], [ 18.132939856000064, 59.242790973000069 ], [ 18.125912938000056, 59.239801459000034 ], [ 18.124919267000053, 59.234678763000034 ], [ 18.106616382000027, 59.227801907000071 ], [ 18.081041613000025, 59.232159892000027 ], [ 18.054000785000028, 59.245628257000078 ], [ 18.031150578000052, 59.249192274000052 ], [ 17.96305811700006, 59.269037881000031 ], [ 17.956501069000069, 59.274654890000079 ], [ 17.955988887000046, 59.282001190000074 ], [ 17.945335099000033, 59.284697904000041 ], [ 17.915717217000065, 59.279329634000078 ], [ 17.907421032000059, 59.269440615000065 ], [ 17.893402191000064, 59.267557006000061 ], [ 17.877862217000029, 59.269217927000057 ], [ 17.867624, 59.273926999000082 ], [ 17.862774, 59.274688499000035 ], [ 17.86615196300005, 59.278199751000045 ], [ 17.868184563000057, 59.286058340000068 ], [ 17.882841921000022, 59.287675660000048 ], [ 17.911569869000061, 59.299343772000043 ], [ 17.947248032000061, 59.307054500000049 ], [ 17.952993365000054, 59.310826481000049 ], [ 17.937661658000025, 59.318413738000061 ], [ 17.877071091000062, 59.337000085000057 ], [ 17.843204312000069, 59.350647036000055 ], [ 17.827561, 59.35249649900004 ], [ 17.826595500000053, 59.35315999900007 ], [ 17.816049108000072, 59.357821357000034 ], [ 17.79585731700007, 59.356153821000078 ], [ 17.786838658000022, 59.372681262000071 ], [ 17.774095879000072, 59.384337136000056 ], [ 17.765841, 59.387508499000035 ], [ 17.762239500000078, 59.389175499000032 ], [ 17.760521, 59.391422499000043 ], [ 17.770034, 59.395042499000056 ], [ 17.774095879000072, 59.396588259000055 ], [ 17.780107500000042, 59.39887599900004 ], [ 17.798504, 59.390712999000073 ], [ 17.81382, 59.39728149900003 ], [ 17.816843, 59.399257499000043 ], [ 17.82377850000006, 59.393897999000046 ], [ 17.827612, 59.391746499000078 ], [ 17.825413, 59.381408499000031 ], [ 17.828293, 59.381030999000075 ], [ 17.840049500000077, 59.381046499000036 ], [ 17.845447500000034, 59.385345499000039 ], [ 17.852604, 59.387855499000068 ], [ 17.855236, 59.390041499000063 ], [ 17.863754500000027, 59.391181999000082 ], [ 17.867326500000047, 59.393485999000063 ], [ 17.869341, 59.396209499000065 ], [ 17.871935, 59.39543149900004 ], [ 17.875475, 59.397189999000034 ], [ 17.872309, 59.399261499000033 ], [ 17.870411, 59.400771999000028 ], [ 17.870687500000031, 59.402995999000041 ], [ 17.888118500000076, 59.405742499000041 ], [ 17.889677402000075, 59.406952148000073 ], [ 17.893402191000064, 59.409842443000059 ], [ 17.896966986000052, 59.414572288000045 ], [ 17.898911937000037, 59.416085523000049 ], [ 17.893402191000064, 59.423189328000035 ], [ 17.889850500000023, 59.424842999000077 ], [ 17.888780551000025, 59.43052330900008 ], [ 17.893402191000064, 59.436703195000064 ], [ 17.901567794000073, 59.439752769000052 ], [ 17.913693046000049, 59.435938557000043 ], [ 17.913572564000049, 59.425464039000076 ], [ 17.923284858000045, 59.418944432000046 ], [ 17.953306315000077, 59.406952148000073 ], [ 17.957226, 59.405502499000079 ], [ 17.967916500000058, 59.399131999000076 ], [ 17.957140425000034, 59.396039576000078 ] ] ] } }
]
}
