{
"type": "FeatureCollection",
"name": "trenčín_boundary_2025-09-12_09-39-11",
"crs": { "type": "name", "properties": { "name": "urn:ogc:def:crs:OGC:1.3:CRS84" } },
"features": [
{ "type": "Feature", "properties": { "city": "Trenčín" }, "geometry": { "type": "Polygon", "coordinates": [ [ [ 18.060473500000057, 48.852285499000061 ], [ 18.05571528300004, 48.850078128000064 ], [ 18.033765884000047, 48.850282722000031 ], [ 18.003805, 48.862950499000078 ], [ 17.991562, 48.865444499000034 ], [ 17.977896, 48.870075999000051 ], [ 17.987859624000066, 48.881032590000075 ], [ 17.98192, 48.88682699900005 ], [ 17.981108832000075, 48.897178675000077 ], [ 17.973761337000042, 48.905200378000075 ], [ 17.971325207000064, 48.912301137000043 ], [ 17.953911464000043, 48.925357602000076 ], [ 17.95068, 48.937418499000046 ], [ 17.955436500000076, 48.938707499000031 ], [ 17.973709, 48.942932499000051 ], [ 17.976865810000049, 48.942580576000069 ], [ 17.986563065000041, 48.947111463000056 ], [ 17.995777970000063, 48.94537508600007 ], [ 18.010709521000024, 48.93961693600005 ], [ 18.018596783000078, 48.934236136000038 ], [ 18.029688116000045, 48.931445944000075 ], [ 18.039213, 48.925071499000069 ], [ 18.043249330000037, 48.902498487000059 ], [ 18.071724174000053, 48.903758448000076 ], [ 18.065051500000038, 48.913123499000051 ], [ 18.072899651000057, 48.91908978500004 ], [ 18.080119960000047, 48.917687516000058 ], [ 18.080895208000072, 48.923739363000038 ], [ 18.085247, 48.924857999000039 ], [ 18.10759478500006, 48.916001107000056 ], [ 18.121987530000069, 48.906616693000046 ], [ 18.137780500000076, 48.901786499000082 ], [ 18.149829471000032, 48.897398819000045 ], [ 18.156564893000052, 48.889330205000078 ], [ 18.162971438000056, 48.886313208000047 ], [ 18.165066, 48.884915999000043 ], [ 18.164974470000061, 48.882627206000052 ], [ 18.162971438000056, 48.880542729000069 ], [ 18.152757502000043, 48.876429325000061 ], [ 18.151384500000063, 48.870027999000058 ], [ 18.143462500000055, 48.865212499000052 ], [ 18.136961500000041, 48.85947599900004 ], [ 18.135441595000032, 48.864797357000043 ], [ 18.129244302000075, 48.867980850000038 ], [ 18.104419165000024, 48.868452132000073 ], [ 18.091122411000072, 48.881496865000031 ], [ 18.075264823000055, 48.882355214000029 ], [ 18.071957980000036, 48.880831682000064 ], [ 18.070358820000024, 48.874523431000057 ], [ 18.059467740000059, 48.866509975000042 ], [ 18.058631022000043, 48.860313278000035 ], [ 18.054367608000064, 48.858144527000036 ], [ 18.060473500000057, 48.852285499000061 ] ] ] } }
]
}
